{"type":"FeatureCollection","features":[{"type":"Feature","properties":{"code":"BZ","name":"Bludenz"},"geometry":{"type":"Polygon","coordinates":[[[10.1348,47.0299],[10.1601,46.9843],[10.121,46.9385],[10.0985,46.9279],[10.1452,46.8515],[10.1054,46.8414],[10.0598,46.8613],[10.0267,46.8964],[9.9781,46.9164],[9.9464,46.9129],[9.8779,46.9387],[9.889,47.0013],[9.8765,47.0218],[9.831,47.0149],[9.7934,47.0318],[9.6777,47.062],[9.6368,47.0523],[9.6073,47.0613],[9.6346,47.1017],[9.6208,47.1522],[9.6383,47.2124],[9.6571,47.2167],[9.6698,47.2064],[9.7083,47.1954],[9.7248,47.2074],[9.7461,47.2097],[9.7546,47.2154],[9.7568,47.2375],[9.7822,47.2414],[9.8275,47.2537],[9.8501,47.2688],[9.9299,47.2898],[9.9716,47.2686],[10.0041,47.2744],[10.042,47.2528],[10.0646,47.2301],[10.099,47.2267],[10.1377,47.2522],[10.198,47.2372],[10.2133,47.1582],[10.1452,47.0975],[10.1338,47.0785],[10.1572,47.0494],[10.1348,47.0299]]]}},{"type":"Feature","properties":{"code":"WL","name":"Wels-Land"},"geometry":{"type":"Polygon","coordinates":[[[14.0387,48.0542],[14.024,48.0137],[13.9882,48.0032],[13.9457,48.0317],[13.9228,48.0304],[13.8829,48.0149],[13.8505,48.0548],[13.8367,48.0471],[13.8271,48.0784],[13.8235,48.0779],[13.7969,48.1038],[13.7879,48.103],[13.7548,48.1186],[13.7729,48.1278],[13.784,48.1495],[13.8051,48.147],[13.8282,48.1751],[13.8739,48.1644],[13.844,48.206],[13.9172,48.2215],[13.931,48.2145],[13.9946,48.218],[13.9922,48.2378],[14.0599,48.2524],[14.0783,48.2485],[14.0939,48.2561],[14.1095,48.2469],[14.121,48.22],[14.155,48.2208],[14.1552,48.1882],[14.1708,48.1762],[14.1487,48.1511],[14.1182,48.1247],[14.1613,48.1134],[14.0967,48.0797],[14.0736,48.0513],[14.0387,48.0542]],[[13.9721,48.1264],[14.0004,48.1425],[14.0555,48.1581],[14.0904,48.1721],[14.0739,48.1969],[13.9973,48.206],[13.9644,48.1833],[13.9798,48.1629],[13.9721,48.1264]]]}},{"type":"Feature","properties":{"code":"SL","name":"Salzburg-Umgebung"},"geometry":{"type":"Polygon","coordinates":[[[13.5517,47.7147],[13.5177,47.6761],[13.4906,47.6309],[13.4503,47.6356],[13.4315,47.6632],[13.336,47.6762],[13.3294,47.6796],[13.2996,47.6752],[13.2569,47.6914],[13.2339,47.7278],[13.2039,47.7491],[13.1958,47.7664],[13.1728,47.7532],[13.1573,47.7595],[13.0818,47.7441],[13.0836,47.7318],[13.0527,47.7245],[13.0467,47.7132],[12.9879,47.708],[12.9339,47.7101],[12.9053,47.728],[12.9442,47.7635],[12.94,47.7853],[12.9898,47.8325],[12.9863,47.7962],[13.0024,47.762],[13.0495,47.7604],[13.0798,47.7556],[13.1275,47.8027],[13.089,47.828],[13.0607,47.8433],[13.06,47.84],[13.0361,47.8301],[13.0021,47.855],[12.9883,47.8698],[12.94,47.9372],[12.9214,47.9515],[12.8718,47.967],[12.8609,47.9972],[12.8907,47.9915],[12.9402,48.037],[12.9903,48.0284],[13.013,48.0371],[13.0477,48.038],[13.0479,48.0278],[13.0584,48.0139],[13.1047,47.9973],[13.125,47.9968],[13.1459,47.9749],[13.1994,47.9748],[13.2106,47.9795],[13.2135,47.983],[13.3047,48.0084],[13.3724,47.9726],[13.3639,47.9447],[13.3593,47.9403],[13.3083,47.9646],[13.2811,47.9553],[13.2819,47.9052],[13.2709,47.892],[13.2939,47.8643],[13.2872,47.8308],[13.313,47.8134],[13.3517,47.8105],[13.3988,47.7984],[13.4512,47.8043],[13.4914,47.7897],[13.5303,47.7976],[13.5362,47.7767],[13.4661,47.7867],[13.437,47.7391],[13.4774,47.7247],[13.5517,47.7147]]]}},{"type":"Feature","properties":{"code":"WO","name":"Wolfsberg"},"geometry":{"type":"Polygon","coordinates":[[[15.0432,46.7212],[15.0313,46.681],[15.066,46.6524],[15.0171,46.6412],[14.9803,46.6018],[14.9566,46.6331],[14.919,46.6545],[14.8773,46.6525],[14.8553,46.668],[14.8609,46.6783],[14.8071,46.6762],[14.7717,46.7139],[14.7588,46.7563],[14.6913,46.8082],[14.6531,46.8261],[14.6468,46.8875],[14.6858,46.9556],[14.6161,46.9984],[14.6286,47.014],[14.7176,47.0188],[14.7681,47.0389],[14.8454,47.0485],[14.8479,47.0334],[14.8865,47.0116],[14.9679,46.9822],[14.9936,46.9387],[15.0279,46.9101],[15.0158,46.8816],[15.0091,46.8803],[15.0206,46.8446],[14.9964,46.8279],[14.9772,46.7852],[14.9976,46.7812],[15.0317,46.7693],[15.0325,46.7461],[15.0432,46.7212]]]}},{"type":"Feature","properties":{"code":"KO","name":"Korneuburg"},"geometry":{"type":"MultiPolygon","coordinates":[[[[15.9958,48.4267],[15.9844,48.4277],[15.9867,48.4344],[15.9958,48.4267]]],[[[16.3964,48.3231],[16.3644,48.2828],[16.3355,48.3278],[16.2892,48.3562],[16.2819,48.3577],[16.2634,48.3547],[16.1667,48.3637],[16.1688,48.3587],[16.1472,48.3537],[16.0412,48.3745],[15.9893,48.3773],[15.9955,48.4256],[16.0208,48.4326],[16.0274,48.4919],[16.0729,48.4949],[16.0985,48.4657],[16.1274,48.4638],[16.1903,48.4938],[16.1923,48.5414],[16.2309,48.5704],[16.284,48.5545],[16.2906,48.5669],[16.319,48.594],[16.3658,48.5928],[16.3963,48.575],[16.3663,48.5502],[16.4161,48.5335],[16.4048,48.5121],[16.4319,48.5133],[16.436,48.4765],[16.409,48.4499],[16.4394,48.4424],[16.4366,48.4073],[16.4277,48.4005],[16.4175,48.3798],[16.4444,48.3557],[16.4648,48.349],[16.5001,48.3431],[16.5269,48.329],[16.5034,48.2909],[16.4735,48.2769],[16.4416,48.2924],[16.4292,48.3209],[16.3964,48.3231]]]]}},{"type":"Feature","properties":{"code":"FR","name":"Freistadt"},"geometry":{"type":"Polygon","coordinates":[[[14.5541,48.3245],[14.5195,48.316],[14.4789,48.3288],[14.4609,48.3529],[14.4415,48.3566],[14.4335,48.3661],[14.4674,48.3963],[14.415,48.4322],[14.404,48.4583],[14.4016,48.481],[14.3793,48.4932],[14.3741,48.535],[14.4373,48.5429],[14.4073,48.5512],[14.3946,48.5781],[14.4445,48.6048],[14.4676,48.6468],[14.505,48.6178],[14.5559,48.6064],[14.6081,48.6292],[14.6277,48.605],[14.6645,48.5826],[14.692,48.5849],[14.7373,48.5534],[14.8122,48.5544],[14.8761,48.5283],[14.922,48.5063],[14.8692,48.4806],[14.878,48.465],[14.9127,48.4353],[14.9292,48.4244],[14.8484,48.3708],[14.7907,48.3371],[14.7799,48.344],[14.7377,48.3317],[14.7127,48.3385],[14.6789,48.3098],[14.6426,48.34],[14.6146,48.3028],[14.5736,48.3048],[14.5643,48.3214],[14.5541,48.3245]]]}},{"type":"Feature","properties":{"code":"WN","name":"Wiener Neustadt(Stadt)"},"geometry":{"type":"Polygon","coordinates":[[[16.2736,47.8548],[16.2829,47.841],[16.2871,47.8119],[16.2699,47.7915],[16.2428,47.7742],[16.1974,47.7506],[16.1568,47.7469],[16.1477,47.7557],[16.1794,47.7743],[16.192,47.8077],[16.1941,47.8463],[16.2245,47.8748],[16.2228,47.8477],[16.2736,47.8548]]]}},{"type":"Feature","properties":{"code":"LL","name":"Linz-Land"},"geometry":{"type":"Polygon","coordinates":[[[14.4838,48.1721],[14.4686,48.1231],[14.4939,48.1105],[14.48,48.105],[14.4244,48.1256],[14.3979,48.1291],[14.3968,48.1335],[14.3352,48.1238],[14.3291,48.1144],[14.2508,48.1053],[14.2413,48.0869],[14.2043,48.0845],[14.1889,48.0743],[14.1363,48.0991],[14.1613,48.1134],[14.1182,48.1247],[14.1487,48.1511],[14.1708,48.1762],[14.1552,48.1882],[14.155,48.2208],[14.121,48.22],[14.1095,48.2469],[14.0939,48.2561],[14.1654,48.278],[14.1456,48.3158],[14.2046,48.322],[14.2344,48.3083],[14.2491,48.3104],[14.276,48.2762],[14.2636,48.2473],[14.3256,48.2119],[14.3866,48.2313],[14.4098,48.249],[14.4374,48.2399],[14.4415,48.245],[14.496,48.2442],[14.5221,48.2382],[14.4819,48.2025],[14.4838,48.1721]]]}},{"type":"Feature","properties":{"code":"K","name":"Klagenfurt Stadt"},"geometry":{"type":"Polygon","coordinates":[[[14.2957,46.6963],[14.3197,46.6675],[14.365,46.6607],[14.4133,46.6412],[14.411,46.6291],[14.2886,46.5758],[14.2491,46.5785],[14.2399,46.6067],[14.2413,46.6214],[14.2227,46.654],[14.2322,46.6971],[14.274,46.7078],[14.2957,46.6963]]]}},{"type":"Feature","properties":{"code":"ZT","name":"Zwettl"},"geometry":{"type":"Polygon","coordinates":[[[15.141,48.3452],[15.1393,48.3332],[15.0162,48.3681],[14.9655,48.3791],[14.9574,48.3919],[14.9292,48.4244],[14.9127,48.4353],[14.878,48.465],[14.8692,48.4806],[14.922,48.5063],[14.8761,48.5283],[14.8122,48.5544],[14.7981,48.5919],[14.8697,48.6173],[14.9048,48.6223],[14.9355,48.6113],[15.0014,48.6268],[15.0183,48.6501],[14.9777,48.6759],[14.9937,48.7048],[15.0543,48.7026],[15.1211,48.7137],[15.1403,48.689],[15.1499,48.7057],[15.1769,48.7106],[15.2222,48.7371],[15.2394,48.7515],[15.3212,48.7519],[15.3371,48.775],[15.359,48.7738],[15.4052,48.7784],[15.4185,48.7472],[15.4452,48.7419],[15.4376,48.721],[15.457,48.6818],[15.4299,48.6751],[15.4253,48.6693],[15.5241,48.6456],[15.5291,48.63],[15.5106,48.5981],[15.4391,48.6177],[15.4175,48.5873],[15.364,48.5808],[15.3221,48.5998],[15.3093,48.5812],[15.3277,48.5372],[15.3108,48.5264],[15.3217,48.4985],[15.2887,48.4669],[15.3144,48.4641],[15.332,48.4317],[15.3664,48.4221],[15.3671,48.4016],[15.2717,48.3743],[15.264,48.3758],[15.2272,48.3598],[15.176,48.3638],[15.141,48.3452]]]}},{"type":"Feature","properties":{"code":"ND","name":"Neusiedl am See"},"geometry":{"type":"Polygon","coordinates":[[[17.0725,47.7071],[16.9606,47.6931],[16.8729,47.6905],[16.8681,47.7221],[16.8296,47.6832],[16.7502,47.6819],[16.741,47.6957],[16.7222,47.7358],[16.7257,47.7822],[16.7368,47.8242],[16.768,47.8687],[16.8054,47.903],[16.7236,47.9626],[16.7024,47.9743],[16.7033,48.0121],[16.7616,48.0144],[16.8294,48.0296],[16.8756,48.0726],[16.9055,48.0715],[16.9165,48.0572],[16.9703,48.0267],[16.995,48.0459],[17.0176,48.074],[16.9724,48.101],[16.9878,48.1119],[16.9991,48.1096],[17.0084,48.0919],[17.068,48.1191],[17.094,48.1001],[17.0714,48.0575],[17.0769,48.028],[17.1113,48.0317],[17.1619,48.007],[17.0959,47.9713],[17.1183,47.9613],[17.114,47.9278],[17.0791,47.878],[17.0112,47.8588],[17.0731,47.8086],[17.0651,47.7782],[17.0725,47.7071]]]}},{"type":"Feature","properties":{"code":"MT","name":"Murtal"},"geometry":{"type":"Polygon","coordinates":[[[14.8513,47.0558],[14.8454,47.0485],[14.7681,47.0389],[14.7176,47.0188],[14.6286,47.014],[14.6161,46.9984],[14.5868,47.0121],[14.5609,47.0722],[14.541,47.1101],[14.5475,47.1141],[14.5156,47.1583],[14.4826,47.1681],[14.4424,47.1635],[14.3936,47.1864],[14.3905,47.2252],[14.3726,47.2676],[14.3332,47.2701],[14.2285,47.3296],[14.2353,47.3707],[14.2418,47.3763],[14.3771,47.4205],[14.4012,47.4394],[14.3999,47.456],[14.5132,47.4626],[14.6038,47.4273],[14.6146,47.3791],[14.6831,47.3638],[14.7302,47.3401],[14.7534,47.3439],[14.7866,47.3691],[14.8106,47.3553],[14.8647,47.3513],[14.9066,47.2967],[14.9347,47.2824],[14.9445,47.3007],[14.9881,47.2811],[15.0494,47.2275],[15.0538,47.2117],[14.9956,47.1908],[14.9827,47.1754],[14.9453,47.1548],[14.9445,47.1301],[14.9188,47.0899],[14.9144,47.0728],[14.8842,47.0846],[14.8513,47.0558]]]}},{"type":"Feature","properties":{"code":"ME","name":"Melk"},"geometry":{"type":"Polygon","coordinates":[[[15.0939,48.1389],[15.0492,48.1308],[15.041,48.1283],[15.0335,48.1223],[14.9818,48.1112],[14.9713,48.159],[14.9717,48.1717],[14.994,48.196],[14.9752,48.1994],[14.9532,48.2197],[14.974,48.2341],[14.971,48.2463],[14.9931,48.2565],[14.9861,48.2997],[14.9447,48.3242],[14.9655,48.3791],[15.0162,48.3681],[15.1393,48.3332],[15.141,48.3452],[15.176,48.3638],[15.2272,48.3598],[15.264,48.3758],[15.2717,48.3743],[15.2869,48.357],[15.3383,48.345],[15.2987,48.3085],[15.2901,48.2804],[15.3105,48.2707],[15.3836,48.2726],[15.3907,48.2763],[15.4113,48.3253],[15.4296,48.3242],[15.4658,48.3167],[15.5088,48.3201],[15.5253,48.2967],[15.522,48.2848],[15.4846,48.2599],[15.4235,48.2114],[15.4396,48.1851],[15.4612,48.1584],[15.4553,48.1431],[15.5187,48.1397],[15.5174,48.1293],[15.4923,48.1152],[15.446,48.1022],[15.4426,48.0795],[15.4135,48.0567],[15.3709,48.039],[15.3501,48.025],[15.2772,48.0074],[15.2674,48.0493],[15.291,48.0588],[15.2227,48.1075],[15.1976,48.1321],[15.1631,48.1169],[15.1573,48.1346],[15.1425,48.1466],[15.1265,48.1376],[15.0939,48.1389]]]}},{"type":"Feature","properties":{"code":"LI","name":"Liezen"},"geometry":{"type":"Polygon","coordinates":[[[14.6356,47.4943],[14.6304,47.4457],[14.6038,47.4273],[14.5132,47.4626],[14.3999,47.456],[14.4012,47.4394],[14.3771,47.4205],[14.2418,47.3763],[14.2353,47.3707],[14.2285,47.3296],[14.1919,47.3043],[14.1416,47.2971],[14.1131,47.2683],[14.0993,47.2632],[14.0481,47.2894],[14.0132,47.2625],[13.9832,47.2696],[13.9313,47.2492],[13.865,47.2526],[13.8244,47.2675],[13.8261,47.2937],[13.7614,47.2667],[13.7126,47.26],[13.6966,47.2606],[13.6083,47.284],[13.6043,47.3302],[13.5731,47.3936],[13.5649,47.4186],[13.5934,47.4616],[13.5864,47.4753],[13.6095,47.4756],[13.6684,47.4632],[13.7233,47.4626],[13.7181,47.4742],[13.722,47.4832],[13.7315,47.4921],[13.7499,47.5021],[13.7615,47.5208],[13.7363,47.5775],[13.6954,47.5798],[13.7087,47.657],[13.7785,47.7189],[13.8611,47.7277],[13.8967,47.718],[14.0114,47.7014],[14.0563,47.6684],[14.0496,47.6374],[14.0516,47.6177],[14.094,47.62],[14.1785,47.6385],[14.2067,47.653],[14.2334,47.6511],[14.2653,47.611],[14.3273,47.6081],[14.3924,47.6364],[14.4218,47.6571],[14.4451,47.6559],[14.5516,47.7196],[14.6149,47.731],[14.6472,47.726],[14.6961,47.7656],[14.7394,47.7492],[14.768,47.7268],[14.8193,47.7447],[14.859,47.741],[14.9022,47.7113],[14.952,47.7321],[15.0357,47.7532],[15.0902,47.742],[15.0682,47.6518],[15.0751,47.6338],[15.0553,47.6079],[14.955,47.5993],[14.9148,47.615],[14.9117,47.6051],[14.8257,47.584],[14.8136,47.551],[14.7728,47.5832],[14.7263,47.5556],[14.684,47.5264],[14.6671,47.497],[14.6356,47.4943]]]}},{"type":"Feature","properties":{"code":"VK","name":"Völkermarkt"},"geometry":{"type":"Polygon","coordinates":[[[14.76,46.5048],[14.6756,46.451],[14.5872,46.4299],[14.587,46.3926],[14.5407,46.4119],[14.4476,46.4219],[14.4353,46.4433],[14.4629,46.4597],[14.4879,46.5063],[14.4522,46.5183],[14.4575,46.5647],[14.4663,46.5686],[14.4888,46.5644],[14.5266,46.6083],[14.5069,46.6491],[14.5358,46.6611],[14.4982,46.6868],[14.5284,46.7121],[14.5371,46.7417],[14.577,46.7325],[14.5951,46.762],[14.6346,46.7508],[14.6531,46.8261],[14.6913,46.8082],[14.7588,46.7563],[14.7717,46.7139],[14.8071,46.6762],[14.8609,46.6783],[14.8553,46.668],[14.8773,46.6525],[14.919,46.6545],[14.9566,46.6331],[14.9239,46.6036],[14.8806,46.6116],[14.8354,46.5636],[14.8236,46.5349],[14.8195,46.5097],[14.76,46.5048]]]}},{"type":"Feature","properties":{"code":"HO","name":"Horn"},"geometry":{"type":"Polygon","coordinates":[[[15.9124,48.6537],[15.9078,48.5988],[15.8806,48.604],[15.8418,48.6045],[15.8256,48.5892],[15.7428,48.574],[15.7331,48.5837],[15.6952,48.5665],[15.6261,48.5618],[15.6028,48.5771],[15.585,48.6236],[15.5291,48.63],[15.5241,48.6456],[15.4253,48.6693],[15.4299,48.6751],[15.457,48.6818],[15.4376,48.721],[15.4804,48.7271],[15.5227,48.7868],[15.5364,48.8218],[15.6093,48.8437],[15.5794,48.8682],[15.5882,48.8966],[15.6538,48.8834],[15.6937,48.8561],[15.7548,48.8528],[15.7582,48.8249],[15.8012,48.825],[15.8198,48.8016],[15.8888,48.7857],[15.8804,48.7817],[15.863,48.7491],[15.8164,48.7366],[15.8165,48.6933],[15.8327,48.687],[15.9026,48.678],[15.9419,48.6675],[15.9124,48.6537]]]}},{"type":"Feature","properties":{"code":"WT","name":"Waidhofen an der Thaya"},"geometry":{"type":"Polygon","coordinates":[[[15.2394,48.7515],[15.2222,48.7371],[15.1769,48.7106],[15.1499,48.7057],[15.1458,48.7376],[15.1182,48.7602],[15.1483,48.801],[15.157,48.7981],[15.1712,48.8158],[15.1555,48.8266],[15.1638,48.8723],[15.1889,48.8801],[15.1881,48.9234],[15.1604,48.9417],[15.2256,48.9608],[15.2626,48.9545],[15.2921,48.9849],[15.3229,48.9768],[15.3681,48.9825],[15.4307,48.9518],[15.5032,48.9366],[15.5145,48.9147],[15.5882,48.8966],[15.5794,48.8682],[15.6093,48.8437],[15.5364,48.8218],[15.5227,48.7868],[15.4804,48.7271],[15.4376,48.721],[15.4452,48.7419],[15.4185,48.7472],[15.4052,48.7784],[15.359,48.7738],[15.3371,48.775],[15.3212,48.7519],[15.2394,48.7515]]]}},{"type":"Feature","properties":{"code":"KU","name":"Kufstein"},"geometry":{"type":"Polygon","coordinates":[[[12.2494,47.479],[12.2042,47.4659],[12.1498,47.4859],[12.1297,47.4811],[12.1149,47.4645],[12.1102,47.4654],[12.0688,47.4208],[12.0849,47.3749],[12.0631,47.3326],[12.0234,47.3222],[11.9294,47.3357],[11.9234,47.3618],[11.8899,47.3798],[11.8397,47.3988],[11.8385,47.4085],[11.8197,47.4026],[11.7735,47.4358],[11.781,47.4564],[11.8278,47.4715],[11.8313,47.4849],[11.8333,47.5385],[11.7952,47.5573],[11.7547,47.5595],[11.7756,47.591],[11.8479,47.5829],[11.8948,47.609],[12.0133,47.6238],[12.0829,47.6103],[12.15,47.6092],[12.1787,47.6015],[12.2087,47.6146],[12.199,47.6427],[12.1679,47.683],[12.1841,47.7011],[12.2656,47.7331],[12.2437,47.6922],[12.2578,47.6797],[12.3277,47.6959],[12.3406,47.6909],[12.321,47.5978],[12.3247,47.5928],[12.309,47.5824],[12.3104,47.5759],[12.3202,47.5667],[12.3225,47.5032],[12.3094,47.4748],[12.2494,47.479]]]}},{"type":"Feature","properties":{"code":"EF","name":"Eferding"},"geometry":{"type":"Polygon","coordinates":[[[14.0599,48.2524],[13.9922,48.2378],[13.9687,48.2465],[13.9317,48.2476],[13.8961,48.2526],[13.8838,48.2791],[13.9083,48.2846],[13.8561,48.2909],[13.8542,48.2953],[13.9119,48.3397],[13.8987,48.3729],[13.9187,48.39],[13.8701,48.4265],[13.8553,48.449],[13.9195,48.4497],[13.9443,48.4039],[13.9803,48.4218],[14.0312,48.3738],[14.0232,48.3542],[14.0267,48.3387],[14.0673,48.32],[14.116,48.3098],[14.1465,48.3207],[14.1456,48.3158],[14.1654,48.278],[14.0939,48.2561],[14.0783,48.2485],[14.0599,48.2524]]]}},{"type":"Feature","properties":{"code":"AM","name":"Amstetten"},"geometry":{"type":"MultiPolygon","coordinates":[[[[14.8861,47.8083],[14.8449,47.7906],[14.859,47.741],[14.8193,47.7447],[14.768,47.7268],[14.7394,47.7492],[14.7128,47.7906],[14.7237,47.8327],[14.7109,47.8512],[14.7637,47.8728],[14.7705,47.8801],[14.8368,47.9137],[14.8214,47.9472],[14.8342,47.9702],[14.9527,47.9743],[14.9452,47.9285],[14.9825,47.9319],[15.0109,47.9151],[14.9763,47.906],[14.9412,47.8684],[14.9494,47.8463],[14.8861,47.8083]]],[[[14.8418,48.0134],[14.8152,47.9932],[14.6905,47.9921],[14.6616,47.9724],[14.65,47.9427],[14.6172,47.9486],[14.5561,47.9804],[14.4941,47.9986],[14.493,48.0114],[14.4571,48.0436],[14.4598,48.0746],[14.4588,48.0892],[14.48,48.105],[14.4939,48.1105],[14.4686,48.1231],[14.4838,48.1721],[14.4819,48.2025],[14.5221,48.2382],[14.5618,48.2316],[14.6446,48.1758],[14.6893,48.1578],[14.7163,48.1792],[14.7626,48.1781],[14.8413,48.1943],[14.8576,48.2119],[14.8867,48.2333],[14.9455,48.2278],[14.9635,48.2029],[14.994,48.196],[14.9717,48.1717],[14.9713,48.159],[14.9818,48.1112],[15.0164,48.1176],[15.0017,48.072],[14.9855,48.0732],[14.9747,48.0424],[14.9279,48.0382],[14.8606,48.0236],[14.8603,48.0195],[14.8418,48.0134]]]]}},{"type":"Feature","properties":{"code":"PE","name":"Perg"},"geometry":{"type":"Polygon","coordinates":[[[14.9532,48.2197],[14.9752,48.1994],[14.9635,48.2029],[14.9455,48.2278],[14.8867,48.2333],[14.8576,48.2119],[14.8413,48.1943],[14.7626,48.1781],[14.7163,48.1792],[14.6893,48.1578],[14.6446,48.1758],[14.5618,48.2316],[14.496,48.2442],[14.4415,48.245],[14.4374,48.2399],[14.4098,48.249],[14.4046,48.2576],[14.4183,48.3051],[14.4437,48.2967],[14.4831,48.3032],[14.4789,48.3288],[14.5195,48.316],[14.5541,48.3245],[14.5643,48.3214],[14.5736,48.3048],[14.6146,48.3028],[14.6426,48.34],[14.6789,48.3098],[14.7127,48.3385],[14.7377,48.3317],[14.7799,48.344],[14.7907,48.3371],[14.8484,48.3708],[14.9292,48.4244],[14.9574,48.3919],[14.9655,48.3791],[14.9447,48.3242],[14.9861,48.2997],[14.9931,48.2565],[14.971,48.2463],[14.974,48.2341],[14.9532,48.2197]]]}},{"type":"Feature","properties":{"code":"PL","name":"Sankt Pölten(Land)"},"geometry":{"type":"Polygon","coordinates":[[[16.1576,48.1694],[16.1499,48.1559],[16.115,48.1324],[16.0808,48.1305],[16.0595,48.1327],[16.0504,48.1385],[15.9968,48.1462],[15.9144,48.1075],[15.917,48.089],[15.8766,48.0765],[15.8465,48.0627],[15.8134,48.0785],[15.7788,48.072],[15.7332,48.078],[15.719,48.084],[15.691,48.0893],[15.6024,48.0681],[15.5597,48.0721],[15.5281,48.0569],[15.5346,48.0087],[15.4995,47.9809],[15.4476,47.9609],[15.4336,47.958],[15.3982,47.9034],[15.337,47.8905],[15.3235,47.9362],[15.2878,47.9469],[15.2704,48.0034],[15.2772,48.0074],[15.3501,48.025],[15.3709,48.039],[15.4135,48.0567],[15.4426,48.0795],[15.446,48.1022],[15.4923,48.1152],[15.5174,48.1293],[15.5187,48.1397],[15.4553,48.1431],[15.4612,48.1584],[15.4396,48.1851],[15.4235,48.2114],[15.4846,48.2599],[15.522,48.2848],[15.5253,48.2967],[15.5088,48.3201],[15.5503,48.338],[15.6292,48.3262],[15.6552,48.3379],[15.6678,48.369],[15.6871,48.3705],[15.7264,48.3794],[15.7325,48.3847],[15.7736,48.3779],[15.8252,48.3361],[15.7839,48.3367],[15.7613,48.3144],[15.8045,48.2882],[15.8344,48.2879],[15.8464,48.2782],[15.843,48.231],[15.8865,48.2322],[15.8944,48.2618],[15.9203,48.2628],[15.9582,48.2601],[16.0037,48.2048],[16.0549,48.2325],[16.0922,48.2432],[16.1169,48.257],[16.1337,48.2581],[16.1605,48.2805],[16.1789,48.2828],[16.2093,48.2646],[16.1863,48.2237],[16.2108,48.2101],[16.1831,48.1715],[16.1576,48.1694]],[[15.5766,48.2131],[15.56,48.1668],[15.5913,48.1665],[15.5854,48.1294],[15.6476,48.123],[15.6467,48.1763],[15.6937,48.1972],[15.7379,48.2305],[15.7359,48.2587],[15.7373,48.267],[15.6702,48.262],[15.6014,48.2328],[15.5766,48.2131]]]}},{"type":"Feature","properties":{"code":"I","name":"Innsbruck-Stadt"},"geometry":{"type":"Polygon","coordinates":[[[11.4279,47.3469],[11.4265,47.3211],[11.4168,47.2951],[11.4535,47.2679],[11.4548,47.2604],[11.4324,47.2476],[11.4544,47.2136],[11.3907,47.214],[11.3901,47.2384],[11.346,47.2434],[11.3056,47.265],[11.3066,47.2925],[11.3364,47.3141],[11.3318,47.3433],[11.3584,47.3605],[11.4279,47.3469]]]}},{"type":"Feature","properties":{"code":"GS","name":"Güssing"},"geometry":{"type":"Polygon","coordinates":[[[16.3236,47.0029],[16.3034,46.9988],[16.2998,47.0064],[16.2904,47.0138],[16.2898,47.0181],[16.2348,47.02],[16.2447,47.044],[16.2289,47.0488],[16.1931,47.0453],[16.1656,47.0382],[16.1301,47.0763],[16.1568,47.1032],[16.139,47.1313],[16.1161,47.1336],[16.1104,47.1672],[16.1037,47.184],[16.0926,47.1989],[16.0876,47.2339],[16.0989,47.2342],[16.1264,47.229],[16.152,47.2014],[16.1779,47.2002],[16.1946,47.2142],[16.239,47.2126],[16.3288,47.1789],[16.3199,47.1533],[16.3287,47.1404],[16.3948,47.1359],[16.3974,47.1302],[16.4474,47.1281],[16.4554,47.1427],[16.501,47.1238],[16.4657,47.0993],[16.4884,47.0692],[16.4524,47.0404],[16.4981,46.9986],[16.4286,46.9935],[16.3876,47.0008],[16.344,46.9995],[16.3236,47.0029]]]}},{"type":"Feature","properties":{"code":"DL","name":"Deutschlandsberg"},"geometry":{"type":"Polygon","coordinates":[[[15.3232,46.6994],[15.3089,46.6528],[15.2369,46.6397],[15.1836,46.6564],[15.1116,46.66],[15.066,46.6524],[15.0313,46.681],[15.0432,46.7212],[15.0325,46.7461],[15.0317,46.7693],[14.9976,46.7812],[14.9772,46.7852],[14.9964,46.8279],[15.0206,46.8446],[15.0091,46.8803],[15.0158,46.8816],[15.0279,46.9101],[15.0766,46.9175],[15.1169,46.9283],[15.1327,46.9622],[15.1744,46.9504],[15.2206,46.9633],[15.2948,46.9488],[15.3148,46.973],[15.3491,46.9536],[15.3497,46.9249],[15.415,46.8782],[15.4309,46.8491],[15.4281,46.8485],[15.4095,46.8231],[15.3748,46.799],[15.3424,46.7725],[15.3598,46.7531],[15.3393,46.7321],[15.3232,46.6994]]]}},{"type":"Feature","properties":{"code":"S","name":"Salzburg(Stadt)"},"geometry":{"type":"Polygon","coordinates":[[[13.06,47.84],[13.0607,47.8433],[13.089,47.828],[13.1275,47.8027],[13.0798,47.7556],[13.0495,47.7604],[13.0024,47.762],[12.9863,47.7962],[12.9898,47.8325],[13.0021,47.855],[13.0361,47.8301],[13.06,47.84]]]}},{"type":"Feature","properties":{"code":"LB","name":"Leibnitz"},"geometry":{"type":"Polygon","coordinates":[[[15.5473,46.6705],[15.5445,46.6326],[15.5128,46.6169],[15.4649,46.6149],[15.4151,46.6559],[15.3839,46.652],[15.3089,46.6528],[15.3232,46.6994],[15.3393,46.7321],[15.3598,46.7531],[15.3424,46.7725],[15.3748,46.799],[15.4095,46.8231],[15.4281,46.8485],[15.4309,46.8491],[15.415,46.8782],[15.4292,46.8814],[15.4509,46.9052],[15.4801,46.913],[15.4874,46.9109],[15.5207,46.9212],[15.5476,46.9775],[15.5435,46.9852],[15.5885,47.0194],[15.6198,47.0115],[15.6171,47.003],[15.5962,46.9783],[15.5998,46.9309],[15.6093,46.9011],[15.6441,46.8971],[15.6661,46.8873],[15.6925,46.8628],[15.686,46.8306],[15.6882,46.7835],[15.7186,46.7822],[15.7517,46.7643],[15.7215,46.7483],[15.7189,46.7237],[15.6525,46.7347],[15.651,46.7061],[15.6155,46.6825],[15.5711,46.6813],[15.5473,46.6705]]]}},{"type":"Feature","properties":{"code":"LZ","name":"Lienz"},"geometry":{"type":"Polygon","coordinates":[[[12.7123,46.7361],[12.7115,46.7055],[12.6873,46.6867],[12.6912,46.6574],[12.6316,46.6618],[12.5518,46.6592],[12.5166,46.679],[12.4805,46.6777],[12.3846,46.7168],[12.358,46.7754],[12.3095,46.7855],[12.2835,46.8154],[12.3065,46.8337],[12.2924,46.8657],[12.2672,46.8877],[12.2116,46.8781],[12.1689,46.9388],[12.1388,46.957],[12.1252,47.0123],[12.148,47.0254],[12.2054,47.0275],[12.2413,47.0697],[12.2843,47.0931],[12.3462,47.1098],[12.3639,47.1419],[12.4001,47.1533],[12.4662,47.1449],[12.4841,47.1583],[12.567,47.1365],[12.6575,47.1],[12.7019,47.0711],[12.7111,47.0489],[12.7666,47.0449],[12.7253,46.9963],[12.7417,46.9695],[12.787,46.94],[12.7943,46.9269],[12.8377,46.913],[12.8418,46.8614],[12.8962,46.8263],[12.9641,46.7991],[12.9321,46.7645],[12.9,46.7773],[12.8575,46.7606],[12.8418,46.7498],[12.8105,46.7567],[12.7964,46.7558],[12.7488,46.7479],[12.7123,46.7361]]]}},{"type":"Feature","properties":{"code":"HL","name":"Hollabrunn"},"geometry":{"type":"Polygon","coordinates":[[[16.1923,48.5414],[16.1903,48.4938],[16.1274,48.4638],[16.0985,48.4657],[16.0729,48.4949],[16.0274,48.4919],[16.0254,48.4957],[15.9602,48.4912],[15.9309,48.4793],[15.9208,48.4818],[15.8905,48.4962],[15.8411,48.4882],[15.785,48.4867],[15.7371,48.5399],[15.7639,48.5425],[15.7428,48.574],[15.8256,48.5892],[15.8418,48.6045],[15.8806,48.604],[15.9078,48.5988],[15.9124,48.6537],[15.9419,48.6675],[15.9026,48.678],[15.8327,48.687],[15.8165,48.6933],[15.8164,48.7366],[15.863,48.7491],[15.8804,48.7817],[15.8888,48.7857],[15.8198,48.8016],[15.8012,48.825],[15.7582,48.8249],[15.7548,48.8528],[15.7807,48.8755],[15.9082,48.8361],[15.9713,48.7959],[16.0659,48.7554],[16.1041,48.746],[16.2247,48.7407],[16.2112,48.7029],[16.2005,48.6625],[16.2588,48.6552],[16.2696,48.6031],[16.303,48.5951],[16.284,48.5545],[16.2309,48.5704],[16.1923,48.5414]]]}},{"type":"Feature","properties":{"code":"WB","name":"Wiener Neustadt(Land)"},"geometry":{"type":"MultiPolygon","coordinates":[[[[16.192,47.8077],[16.1794,47.7743],[16.1285,47.8051],[16.0909,47.7975],[16.0891,47.8004],[16.0027,47.8159],[15.9713,47.8074],[15.9189,47.8115],[15.9075,47.8276],[15.8612,47.82],[15.8101,47.7853],[15.8007,47.8318],[15.7836,47.842],[15.7412,47.8625],[15.6301,47.8552],[15.6252,47.8754],[15.668,47.9034],[15.6914,47.8956],[15.7599,47.9353],[15.8199,47.9384],[15.873,47.9606],[15.9993,47.9426],[15.9989,47.9239],[16.0171,47.9326],[16.013,47.8935],[16.0831,47.9002],[16.1122,47.8765],[16.1499,47.8842],[16.205,47.906],[16.2201,47.8984],[16.2357,47.9181],[16.2944,47.9117],[16.3901,47.8821],[16.3838,47.8767],[16.3492,47.8686],[16.3757,47.8529],[16.3784,47.8278],[16.3559,47.8212],[16.3168,47.785],[16.2871,47.8119],[16.2829,47.841],[16.2736,47.8548],[16.2228,47.8477],[16.225,47.8751],[16.1941,47.8463],[16.192,47.8077]]],[[[16.2543,47.4485],[16.2081,47.4251],[16.1729,47.4228],[16.1391,47.4619],[16.1608,47.4676],[16.1679,47.4824],[16.148,47.5466],[16.2112,47.5384],[16.186,47.5586],[16.1909,47.5858],[16.1773,47.6115],[16.1832,47.6194],[16.1925,47.6233],[16.207,47.6838],[16.2004,47.7232],[16.1666,47.7174],[16.2066,47.7347],[16.1974,47.7506],[16.2428,47.7742],[16.2699,47.7915],[16.3005,47.7616],[16.2968,47.7427],[16.2962,47.7158],[16.3103,47.6959],[16.3102,47.6876],[16.3579,47.68],[16.3737,47.6429],[16.3455,47.6032],[16.3321,47.59],[16.3143,47.5658],[16.3149,47.5431],[16.3174,47.5428],[16.3408,47.5166],[16.322,47.4941],[16.2822,47.4555],[16.2543,47.4485]]]]}},{"type":"Feature","properties":{"code":"BR","name":"Braunau am Inn"},"geometry":{"type":"Polygon","coordinates":[[[12.9388,48.0366],[12.8907,47.9915],[12.8609,47.9972],[12.8347,48.0287],[12.7712,48.0665],[12.7513,48.1002],[12.7655,48.1295],[12.7939,48.1331],[12.8488,48.1685],[12.8729,48.2027],[12.9559,48.2096],[13.0239,48.2589],[13.0649,48.27],[13.1434,48.2835],[13.1963,48.2961],[13.2035,48.2685],[13.2074,48.2633],[13.2574,48.2744],[13.273,48.2525],[13.3214,48.2403],[13.3458,48.2233],[13.337,48.2186],[13.3538,48.1975],[13.3256,48.1075],[13.3308,48.0699],[13.298,48.0299],[13.3047,48.0084],[13.2135,47.983],[13.2106,47.9795],[13.1994,47.9748],[13.1459,47.9749],[13.125,47.9968],[13.1047,47.9973],[13.0584,48.0139],[13.0479,48.0278],[13.0477,48.038],[13.013,48.0371],[12.9903,48.0284],[12.9388,48.0366]]]}},{"type":"Feature","properties":{"code":"BN","name":"Baden"},"geometry":{"type":"Polygon","coordinates":[[[16.4536,47.9347],[16.424,47.9024],[16.3901,47.8821],[16.2944,47.9117],[16.2357,47.9181],[16.2201,47.8984],[16.205,47.906],[16.1499,47.8842],[16.1122,47.8765],[16.0831,47.9002],[16.013,47.8935],[16.0171,47.9326],[15.9989,47.9239],[15.9993,47.9426],[15.873,47.9606],[15.8696,47.9979],[15.9492,47.9988],[15.9357,48.0436],[15.8836,48.0587],[15.8766,48.0765],[15.917,48.089],[15.9144,48.1075],[15.9968,48.1462],[16.0504,48.1385],[16.0595,48.1327],[16.041,48.1234],[16.0487,48.0827],[16.0818,48.0882],[16.1067,48.0621],[16.1623,48.0649],[16.162,48.0485],[16.2246,48.028],[16.2517,48.0402],[16.2671,48.0348],[16.3042,48.0443],[16.3572,48.0232],[16.3554,48.0182],[16.4091,48.0064],[16.411,48.0021],[16.4592,47.988],[16.4961,48.0205],[16.5067,48.0254],[16.5613,47.9942],[16.5523,47.9765],[16.5426,47.9668],[16.5333,47.9505],[16.5199,47.944],[16.4536,47.9347]]]}},{"type":"Feature","properties":{"code":"RI","name":"Ried im Innkreis"},"geometry":{"type":"Polygon","coordinates":[[[13.4601,48.1075],[13.4057,48.0854],[13.3928,48.0593],[13.3837,48.0518],[13.354,48.0558],[13.3308,48.0699],[13.3256,48.1075],[13.3538,48.1975],[13.337,48.2186],[13.3458,48.2233],[13.3214,48.2403],[13.273,48.2525],[13.2574,48.2744],[13.2074,48.2633],[13.2035,48.2685],[13.1963,48.2961],[13.2545,48.2938],[13.3153,48.317],[13.3421,48.3323],[13.3749,48.3571],[13.4087,48.3728],[13.4262,48.3533],[13.4255,48.3478],[13.4659,48.3349],[13.5327,48.3324],[13.563,48.3288],[13.5714,48.31],[13.6098,48.2996],[13.6285,48.2911],[13.5917,48.2544],[13.5685,48.2441],[13.5852,48.2263],[13.5856,48.2137],[13.6119,48.203],[13.6126,48.1696],[13.607,48.1332],[13.5829,48.1155],[13.5524,48.1204],[13.4772,48.1069],[13.4601,48.1075]]]}},{"type":"Feature","properties":{"code":"HE","name":"Hermagor"},"geometry":{"type":"Polygon","coordinates":[[[13.5731,46.6574],[13.5549,46.6313],[13.5584,46.5913],[13.5049,46.5667],[13.4242,46.559],[13.3729,46.5797],[13.3228,46.5536],[13.2535,46.5609],[13.1798,46.5782],[13.1693,46.5893],[13.0883,46.6017],[13.0734,46.5993],[12.9878,46.5999],[12.8343,46.6103],[12.7765,46.6471],[12.732,46.6347],[12.6912,46.6574],[12.6873,46.6867],[12.7115,46.7055],[12.7123,46.7361],[12.7488,46.7479],[12.8105,46.7567],[12.8418,46.7498],[12.8899,46.7188],[12.9551,46.7262],[12.9969,46.7107],[13.0635,46.7019],[13.0852,46.7014],[13.12,46.6855],[13.1399,46.685],[13.1879,46.6944],[13.2293,46.7124],[13.2886,46.6912],[13.3069,46.6986],[13.3612,46.6726],[13.4335,46.6576],[13.5731,46.6574]]]}},{"type":"Feature","properties":{"code":"NK","name":"Neunkirchen"},"geometry":{"type":"Polygon","coordinates":[[[16.148,47.5466],[16.1679,47.4824],[16.1608,47.4676],[16.1391,47.4619],[16.1141,47.4975],[16.0885,47.5076],[16.0662,47.4868],[16.0012,47.5163],[15.9596,47.5183],[15.915,47.5309],[15.9065,47.5602],[15.8481,47.5682],[15.8617,47.6171],[15.8414,47.6186],[15.8229,47.6384],[15.7824,47.6428],[15.7434,47.6427],[15.7262,47.6469],[15.7202,47.7103],[15.6798,47.6995],[15.6368,47.716],[15.6128,47.7516],[15.6322,47.8163],[15.6301,47.8552],[15.7412,47.8625],[15.8007,47.8318],[15.8101,47.7853],[15.8612,47.82],[15.9075,47.8276],[15.9189,47.8115],[15.9713,47.8074],[16.0027,47.8159],[16.0891,47.8004],[16.0909,47.7975],[16.1285,47.8051],[16.1794,47.7743],[16.1477,47.7557],[16.1568,47.7469],[16.1974,47.7506],[16.2066,47.7347],[16.1666,47.7174],[16.2004,47.7232],[16.207,47.6838],[16.1925,47.6233],[16.1832,47.6194],[16.1773,47.6115],[16.1909,47.5858],[16.186,47.5586],[16.2112,47.5384],[16.148,47.5466]]]}},{"type":"Feature","properties":{"code":"JE","name":"Jennersdorf"},"geometry":{"type":"Polygon","coordinates":[[[16.0668,46.8502],[15.9973,46.8358],[16.0245,46.8883],[16.0365,46.8932],[16.0551,46.9107],[16.0959,46.9347],[16.0965,46.9544],[16.1088,46.9657],[16.1228,46.991],[16.1556,46.9912],[16.1318,47.0125],[16.0994,47.0614],[16.0877,47.0882],[16.0959,47.1126],[16.1161,47.1336],[16.139,47.1313],[16.1568,47.1032],[16.1301,47.0763],[16.1656,47.0382],[16.1931,47.0453],[16.2289,47.0488],[16.2447,47.044],[16.2348,47.02],[16.2898,47.0181],[16.2904,47.0138],[16.2775,46.963],[16.2564,46.9646],[16.2111,46.9429],[16.1986,46.9403],[16.1803,46.907],[16.1339,46.8759],[16.093,46.8649],[16.0668,46.8502]]]}},{"type":"Feature","properties":{"code":"ZE","name":"Zell am See"},"geometry":{"type":"Polygon","coordinates":[[[13.0413,47.2461],[13.0443,47.1937],[13.0213,47.1332],[13.0386,47.0909],[13.0038,47.0443],[12.986,47.0361],[12.9537,47.0497],[12.9382,47.0766],[12.8209,47.0982],[12.7395,47.1008],[12.7315,47.1315],[12.6668,47.1233],[12.6575,47.1],[12.567,47.1365],[12.4841,47.1583],[12.4662,47.1449],[12.4001,47.1533],[12.3639,47.1419],[12.3462,47.1098],[12.2843,47.0931],[12.2413,47.0697],[12.1865,47.0927],[12.1366,47.0812],[12.1112,47.1402],[12.0938,47.1466],[12.0833,47.1962],[12.1106,47.2409],[12.0791,47.2757],[12.1151,47.307],[12.1652,47.3021],[12.2196,47.3117],[12.2553,47.3085],[12.2647,47.3027],[12.2971,47.3286],[12.3358,47.329],[12.3752,47.3118],[12.4425,47.3291],[12.4789,47.3269],[12.4958,47.3379],[12.4796,47.3688],[12.5067,47.3947],[12.5459,47.3986],[12.5792,47.393],[12.6252,47.423],[12.6329,47.4326],[12.6453,47.4687],[12.7002,47.4784],[12.6658,47.5066],[12.6548,47.5373],[12.6288,47.5501],[12.6542,47.5886],[12.5752,47.6055],[12.5757,47.6329],[12.604,47.6728],[12.6667,47.6816],[12.7325,47.6802],[12.7904,47.6338],[12.792,47.5989],[12.7799,47.5798],[12.787,47.5686],[12.9326,47.4883],[13.0017,47.4645],[13.0186,47.4752],[13.0105,47.4585],[13.0538,47.4208],[13.0436,47.3713],[13.0662,47.36],[13.0287,47.3276],[13.0349,47.3052],[13.0649,47.2976],[13.0769,47.2878],[13.0413,47.2461]]]}},{"type":"Feature","properties":{"code":"KR","name":"Krems(Land)"},"geometry":{"type":"Polygon","coordinates":[[[15.4113,48.3253],[15.3907,48.2763],[15.3836,48.2726],[15.3105,48.2707],[15.2901,48.2804],[15.2987,48.3085],[15.3383,48.345],[15.2869,48.357],[15.2717,48.3743],[15.3671,48.4016],[15.3664,48.4221],[15.332,48.4317],[15.3144,48.4641],[15.2887,48.4669],[15.3217,48.4985],[15.3108,48.5264],[15.3277,48.5372],[15.3093,48.5812],[15.3221,48.5998],[15.364,48.5808],[15.4175,48.5873],[15.4391,48.6177],[15.5106,48.5981],[15.5291,48.63],[15.585,48.6236],[15.6028,48.5771],[15.6261,48.5618],[15.6952,48.5665],[15.7331,48.5837],[15.7428,48.574],[15.7639,48.5425],[15.7371,48.5399],[15.785,48.4867],[15.7582,48.4131],[15.7362,48.3982],[15.7325,48.3847],[15.7264,48.3794],[15.6734,48.4088],[15.6427,48.4177],[15.6469,48.4462],[15.6312,48.45],[15.5959,48.4438],[15.537,48.4397],[15.533,48.4222],[15.5605,48.3919],[15.6061,48.4031],[15.6289,48.3719],[15.6678,48.369],[15.6552,48.3379],[15.6292,48.3262],[15.5503,48.338],[15.5088,48.3201],[15.4658,48.3167],[15.4296,48.3242],[15.4113,48.3253]]]}},{"type":"Feature","properties":{"code":"LE","name":"Leoben"},"geometry":{"type":"Polygon","coordinates":[[[15.1785,47.4038],[15.2005,47.3598],[15.2323,47.3377],[15.1971,47.3215],[15.1608,47.2846],[15.148,47.2816],[15.0988,47.2621],[15.0494,47.2275],[14.9881,47.2811],[14.9445,47.3007],[14.9347,47.2824],[14.9066,47.2967],[14.8647,47.3513],[14.8106,47.3553],[14.7866,47.3691],[14.7534,47.3439],[14.7302,47.3401],[14.6831,47.3638],[14.6146,47.3791],[14.6038,47.4273],[14.6304,47.4457],[14.6356,47.4943],[14.6671,47.497],[14.684,47.5264],[14.7263,47.5556],[14.7728,47.5832],[14.8136,47.551],[14.8257,47.584],[14.9117,47.6051],[14.9148,47.615],[14.955,47.5993],[14.9786,47.5425],[14.9876,47.5364],[15.0402,47.5269],[15.0569,47.4722],[15.1112,47.4391],[15.1619,47.4434],[15.1785,47.4038]]]}},{"type":"Feature","properties":{"code":"MD","name":"Mödling"},"geometry":{"type":"Polygon","coordinates":[[[16.4039,48.0537],[16.4091,48.0064],[16.3554,48.0182],[16.3572,48.0232],[16.3042,48.0443],[16.2671,48.0348],[16.2517,48.0402],[16.2246,48.028],[16.162,48.0485],[16.1623,48.0649],[16.1067,48.0621],[16.0818,48.0882],[16.0487,48.0827],[16.041,48.1234],[16.0595,48.1327],[16.0808,48.1305],[16.115,48.1324],[16.1499,48.1559],[16.1576,48.1694],[16.1831,48.1715],[16.1992,48.155],[16.2193,48.1286],[16.2201,48.1243],[16.2684,48.1341],[16.3134,48.12],[16.3671,48.1289],[16.3895,48.1259],[16.3765,48.0999],[16.403,48.0948],[16.4166,48.0898],[16.4039,48.0537]]]}},{"type":"Feature","properties":{"code":"SB","name":"Scheibbs"},"geometry":{"type":"Polygon","coordinates":[[[15.0357,47.7532],[14.952,47.7321],[14.9022,47.7113],[14.859,47.741],[14.8449,47.7906],[14.8861,47.8083],[14.9494,47.8463],[14.9412,47.8684],[14.9763,47.906],[15.0109,47.9151],[14.9825,47.9319],[14.9452,47.9285],[14.9527,47.9743],[14.9216,47.9747],[14.8606,48.0236],[14.9279,48.0382],[14.9747,48.0424],[14.9855,48.0732],[15.0017,48.072],[15.0164,48.1176],[15.0335,48.1223],[15.041,48.1283],[15.0939,48.1389],[15.1265,48.1376],[15.1425,48.1466],[15.1573,48.1346],[15.1631,48.1169],[15.1976,48.1321],[15.2227,48.1075],[15.291,48.0588],[15.2674,48.0493],[15.2772,48.0074],[15.2704,48.0034],[15.2878,47.9469],[15.3235,47.9362],[15.337,47.8905],[15.2706,47.8786],[15.2633,47.8818],[15.2561,47.8698],[15.1659,47.85],[15.2015,47.8254],[15.2183,47.7965],[15.2004,47.7539],[15.1358,47.7585],[15.0902,47.742],[15.0357,47.7532]]]}},{"type":"Feature","properties":{"code":"RU","name":"Rust(Stadt)"},"geometry":{"type":"Polygon","coordinates":[[[16.733,47.8099],[16.7257,47.7822],[16.6659,47.7884],[16.6433,47.8192],[16.6514,47.8242],[16.733,47.8099]]]}},{"type":"Feature","properties":{"code":"WE","name":"Wels(Stadt)"},"geometry":{"type":"Polygon","coordinates":[[[14.0739,48.1969],[14.0904,48.1721],[14.0555,48.1581],[14.0004,48.1425],[13.9721,48.1264],[13.9798,48.1629],[13.9644,48.1833],[13.9973,48.206],[14.0739,48.1969]]]}},{"type":"Feature","properties":{"code":"BL","name":"Bruck an der Leitha"},"geometry":{"type":"Polygon","coordinates":[[[16.6096,47.9128],[16.5815,47.8891],[16.5752,47.8867],[16.5199,47.944],[16.5333,47.9505],[16.5426,47.9668],[16.5523,47.9765],[16.5613,47.9942],[16.5067,48.0254],[16.4961,48.0205],[16.4592,47.988],[16.411,48.0021],[16.4039,48.0537],[16.4166,48.0898],[16.403,48.0948],[16.3765,48.0999],[16.3895,48.1259],[16.414,48.1187],[16.4382,48.1204],[16.4787,48.1551],[16.515,48.1594],[16.5773,48.1357],[16.5782,48.1449],[16.6405,48.1316],[16.6703,48.122],[16.7542,48.1251],[16.7573,48.1202],[16.8258,48.1192],[16.8728,48.1489],[16.9017,48.1417],[16.9381,48.1761],[16.9775,48.1727],[17.068,48.1191],[17.0084,48.0919],[16.9991,48.1096],[16.9878,48.1119],[16.9724,48.101],[17.0176,48.074],[16.995,48.0459],[16.9703,48.0267],[16.9165,48.0572],[16.9055,48.0715],[16.8756,48.0726],[16.8294,48.0296],[16.7616,48.0144],[16.7033,48.0121],[16.7024,47.9743],[16.641,47.9464],[16.6333,47.9339],[16.6096,47.9128]]]}},{"type":"Feature","properties":{"code":"RO","name":"Rohrbach"},"geometry":{"type":"Polygon","coordinates":[[[14.0821,48.4173],[14.0545,48.3871],[14.0312,48.3738],[13.9803,48.4218],[13.9443,48.4039],[13.9195,48.4497],[13.8553,48.449],[13.8701,48.4265],[13.8663,48.4264],[13.7755,48.4743],[13.728,48.5136],[13.7652,48.5612],[13.8019,48.5743],[13.8267,48.6193],[13.8182,48.6594],[13.8382,48.7008],[13.802,48.7172],[13.8405,48.7723],[13.8779,48.7666],[13.9272,48.7353],[13.9774,48.7117],[14.0042,48.7092],[14.0539,48.6533],[14.0115,48.6403],[14.0431,48.6135],[14.0965,48.5929],[14.1169,48.5898],[14.2225,48.5871],[14.1939,48.5809],[14.1748,48.5505],[14.1718,48.533],[14.1957,48.525],[14.1793,48.5043],[14.1805,48.4579],[14.1344,48.4364],[14.1054,48.4452],[14.0821,48.4173]]]}},{"type":"Feature","properties":{"code":"VI","name":"Villach Stadt"},"geometry":{"type":"Polygon","coordinates":[[[13.954,46.6663],[13.9277,46.6476],[13.9251,46.6155],[13.9792,46.5941],[13.9614,46.5838],[13.9406,46.5775],[13.8474,46.5807],[13.7975,46.5685],[13.7458,46.5661],[13.7146,46.5921],[13.7647,46.6354],[13.7924,46.6333],[13.8094,46.6685],[13.8423,46.6529],[13.8915,46.6496],[13.954,46.6663]]]}},{"type":"Feature","properties":{"code":"RE","name":"Reutte"},"geometry":{"type":"MultiPolygon","coordinates":[[[[10.4548,47.5564],[10.4336,47.5701],[10.4626,47.5863],[10.4737,47.5718],[10.4548,47.5564]]],[[[10.9223,47.3688],[10.9141,47.3527],[10.8627,47.3374],[10.8195,47.3864],[10.7731,47.3823],[10.7342,47.3577],[10.7069,47.3624],[10.6926,47.3372],[10.6099,47.329],[10.652,47.268],[10.5958,47.2738],[10.5416,47.297],[10.5387,47.2946],[10.5692,47.278],[10.5656,47.2483],[10.5493,47.2359],[10.4946,47.2383],[10.4486,47.2329],[10.4252,47.1943],[10.3959,47.1744],[10.2133,47.1582],[10.198,47.2372],[10.1786,47.2707],[10.2663,47.2887],[10.3491,47.3181],[10.3979,47.3775],[10.4371,47.381],[10.4389,47.4141],[10.4706,47.4491],[10.4641,47.4833],[10.4361,47.496],[10.4548,47.5564],[10.4893,47.541],[10.5249,47.5358],[10.5632,47.5367],[10.5983,47.5703],[10.6784,47.5568],[10.7408,47.5391],[10.7642,47.5202],[10.8908,47.5379],[10.906,47.5181],[10.8705,47.4983],[10.8869,47.4808],[10.9329,47.4686],[10.984,47.4306],[10.9916,47.3967],[10.9861,47.3694],[10.9223,47.3688]]]]}},{"type":"Feature","properties":{"code":"SD","name":"Schärding"},"geometry":{"type":"Polygon","coordinates":[[[13.5327,48.3324],[13.4659,48.3349],[13.4255,48.3478],[13.4262,48.3533],[13.4087,48.3728],[13.421,48.4007],[13.4368,48.4264],[13.4351,48.4457],[13.4404,48.4795],[13.4441,48.4859],[13.4458,48.5287],[13.4759,48.5566],[13.5293,48.5874],[13.5523,48.5714],[13.6021,48.5695],[13.642,48.5531],[13.678,48.5311],[13.728,48.5136],[13.7755,48.4743],[13.8663,48.4264],[13.8413,48.4171],[13.8075,48.4211],[13.7761,48.4388],[13.7557,48.4399],[13.6974,48.4355],[13.686,48.4076],[13.7049,48.3867],[13.7176,48.3781],[13.7164,48.3323],[13.7113,48.3334],[13.7106,48.3142],[13.6725,48.3051],[13.6549,48.2856],[13.6508,48.2638],[13.6289,48.2513],[13.5917,48.2544],[13.6285,48.2911],[13.6098,48.2996],[13.5714,48.31],[13.563,48.3288],[13.5327,48.3324]]]}},{"type":"Feature","properties":{"code":"VO","name":"Voitsberg"},"geometry":{"type":"Polygon","coordinates":[[[15.2991,46.9828],[15.3148,46.973],[15.2948,46.9488],[15.2206,46.9633],[15.1744,46.9504],[15.1327,46.9622],[15.1169,46.9283],[15.0766,46.9175],[15.0279,46.9101],[14.9936,46.9387],[14.9679,46.9822],[14.8865,47.0116],[14.8479,47.0334],[14.8454,47.0485],[14.8842,47.0846],[14.9144,47.0728],[14.9188,47.0899],[14.9445,47.1301],[14.9453,47.1548],[14.9827,47.1754],[14.9956,47.1908],[15.0538,47.2117],[15.1627,47.2032],[15.186,47.1686],[15.1724,47.1408],[15.2201,47.0842],[15.2271,47.0869],[15.2638,47.0453],[15.266,47.0357],[15.2612,47.0266],[15.3132,46.9939],[15.2991,46.9828]]]}},{"type":"Feature","properties":{"code":"MI","name":"Mistelbach"},"geometry":{"type":"Polygon","coordinates":[[[16.8605,48.6349],[16.8585,48.6101],[16.8124,48.6167],[16.7977,48.629],[16.7849,48.6317],[16.7803,48.6359],[16.7115,48.6217],[16.679,48.6312],[16.703,48.5877],[16.6813,48.5619],[16.6766,48.5258],[16.666,48.5228],[16.637,48.5028],[16.6585,48.481],[16.6384,48.4655],[16.5475,48.4658],[16.5595,48.4298],[16.5825,48.4207],[16.5982,48.3912],[16.5992,48.3802],[16.6622,48.3386],[16.6042,48.3149],[16.5723,48.3269],[16.5503,48.3325],[16.5269,48.329],[16.5001,48.3431],[16.4648,48.349],[16.4444,48.3557],[16.4175,48.3798],[16.4277,48.4005],[16.4366,48.4073],[16.4394,48.4424],[16.409,48.4499],[16.436,48.4765],[16.4319,48.5133],[16.4048,48.5121],[16.4161,48.5335],[16.3663,48.5502],[16.3963,48.575],[16.3658,48.5928],[16.319,48.594],[16.2906,48.5669],[16.303,48.5951],[16.2696,48.6031],[16.2588,48.6552],[16.2005,48.6625],[16.2112,48.7029],[16.2247,48.7407],[16.2743,48.7418],[16.361,48.7286],[16.4363,48.7662],[16.4632,48.8052],[16.5353,48.8114],[16.5945,48.7834],[16.6527,48.7857],[16.6759,48.7721],[16.6839,48.7283],[16.7486,48.7327],[16.7618,48.7173],[16.8286,48.7116],[16.907,48.7145],[16.9118,48.6792],[16.9294,48.6391],[16.9079,48.6259],[16.8605,48.6349]]]}},{"type":"Feature","properties":{"code":"TU","name":"Tulln"},"geometry":{"type":"Polygon","coordinates":[[[15.8944,48.2618],[15.8865,48.2322],[15.843,48.231],[15.8464,48.2782],[15.8344,48.2879],[15.8045,48.2882],[15.7613,48.3144],[15.7839,48.3367],[15.8252,48.3361],[15.7736,48.3779],[15.7325,48.3847],[15.7362,48.3982],[15.7582,48.4131],[15.785,48.4867],[15.8411,48.4882],[15.8905,48.4962],[15.9208,48.4818],[15.9309,48.4793],[15.9602,48.4912],[16.0254,48.4957],[16.0274,48.4919],[16.0208,48.4326],[15.9955,48.4256],[15.9893,48.3773],[16.0412,48.3745],[16.1472,48.3537],[16.1688,48.3587],[16.1667,48.3637],[16.2634,48.3547],[16.2819,48.3577],[16.2892,48.3562],[16.3355,48.3278],[16.3644,48.2828],[16.2902,48.271],[16.258,48.2434],[16.2093,48.2646],[16.1789,48.2828],[16.1605,48.2805],[16.1337,48.2581],[16.1169,48.257],[16.0922,48.2432],[16.0549,48.2325],[16.0037,48.2048],[15.9582,48.2601],[15.9203,48.2628],[15.8944,48.2618]],[[15.9867,48.4344],[15.9844,48.4277],[15.9958,48.4267],[15.9867,48.4344]]]}},{"type":"Feature","properties":{"code":"EU","name":"Eisenstadt-Umgebung"},"geometry":{"type":"Polygon","coordinates":[[[16.768,47.8687],[16.7368,47.8242],[16.733,47.8099],[16.6514,47.8242],[16.6433,47.8192],[16.6659,47.7884],[16.7257,47.7822],[16.7222,47.7358],[16.6584,47.742],[16.6355,47.7595],[16.5921,47.7584],[16.5388,47.7404],[16.522,47.7451],[16.4986,47.7644],[16.5057,47.7795],[16.4665,47.7886],[16.4481,47.8038],[16.44,47.8006],[16.4044,47.7992],[16.3635,47.8237],[16.3784,47.8278],[16.3757,47.8529],[16.3492,47.8686],[16.3838,47.8767],[16.424,47.9024],[16.4536,47.9347],[16.5199,47.944],[16.5752,47.8867],[16.5815,47.8891],[16.6333,47.9339],[16.641,47.9464],[16.7024,47.9743],[16.7236,47.9626],[16.8054,47.903],[16.768,47.8687]],[[16.4851,47.8695],[16.5053,47.8156],[16.532,47.7939],[16.5478,47.7946],[16.5397,47.8212],[16.5816,47.8397],[16.5678,47.8843],[16.5275,47.8752],[16.4851,47.8695]]]}},{"type":"Feature","properties":{"code":"SR","name":"Steyr(Stadt)"},"geometry":{"type":"Polygon","coordinates":[[[14.4588,48.0892],[14.4598,48.0746],[14.4571,48.0436],[14.4174,48.0241],[14.3779,48.0447],[14.3873,48.0606],[14.4113,48.0767],[14.4588,48.0892]]]}},{"type":"Feature","properties":{"code":"GF","name":"Gänserndorf"},"geometry":{"type":"Polygon","coordinates":[[[16.6703,48.122],[16.6405,48.1316],[16.5782,48.1449],[16.551,48.1651],[16.5375,48.2009],[16.554,48.2395],[16.5482,48.2635],[16.5161,48.286],[16.5034,48.2909],[16.5269,48.329],[16.5503,48.3325],[16.5723,48.3269],[16.6042,48.3149],[16.6622,48.3386],[16.5992,48.3802],[16.5982,48.3912],[16.5825,48.4207],[16.5595,48.4298],[16.5475,48.4658],[16.6384,48.4655],[16.6585,48.481],[16.637,48.5028],[16.666,48.5228],[16.6766,48.5258],[16.6813,48.5619],[16.703,48.5877],[16.679,48.6312],[16.7115,48.6217],[16.7803,48.6359],[16.7849,48.6317],[16.7977,48.629],[16.8124,48.6167],[16.8585,48.6101],[16.8605,48.6349],[16.9079,48.6259],[16.9294,48.6391],[16.9362,48.6028],[16.9398,48.5659],[16.9552,48.5448],[16.8821,48.478],[16.8524,48.4391],[16.8435,48.3606],[16.9089,48.3272],[16.902,48.2984],[16.9475,48.2708],[16.9775,48.1727],[16.9381,48.1761],[16.9017,48.1417],[16.8728,48.1489],[16.8258,48.1192],[16.7573,48.1202],[16.7542,48.1251],[16.6703,48.122]]]}},{"type":"Feature","properties":{"code":"SV","name":"Sankt Veit an der Glan"},"geometry":{"type":"Polygon","coordinates":[[[14.5951,46.762],[14.577,46.7325],[14.5371,46.7417],[14.5284,46.7121],[14.4982,46.6868],[14.4675,46.6883],[14.4653,46.7173],[14.4195,46.7323],[14.3927,46.7174],[14.2957,46.6963],[14.274,46.7078],[14.2322,46.6971],[14.261,46.7296],[14.2007,46.7392],[14.1971,46.7865],[14.1618,46.7934],[14.1743,46.7982],[14.1087,46.8111],[14.1381,46.8486],[14.1367,46.8527],[14.1122,46.8364],[14.0301,46.849],[13.9994,46.8654],[13.9933,46.9109],[13.9558,46.918],[13.9475,46.9411],[13.9685,46.9637],[14.08,47.0225],[14.1334,47.0628],[14.1634,47.0529],[14.2052,47.0764],[14.2359,47.0263],[14.2385,47.0288],[14.331,47.0296],[14.4311,47.0009],[14.4727,47.0081],[14.5058,47.0268],[14.528,47.0096],[14.5868,47.0121],[14.6161,46.9984],[14.6858,46.9556],[14.6468,46.8875],[14.6531,46.8261],[14.6346,46.7508],[14.5951,46.762]]]}},{"type":"Feature","properties":{"code":"SZ","name":"Schwaz"},"geometry":{"type":"Polygon","coordinates":[[[11.8746,47.0106],[11.7648,46.9733],[11.7283,46.9728],[11.7119,46.9937],[11.6649,46.9924],[11.6277,47.0138],[11.6497,47.0472],[11.659,47.0534],[11.6346,47.1045],[11.6332,47.1406],[11.6728,47.1607],[11.6672,47.1983],[11.7041,47.2056],[11.6918,47.2622],[11.6324,47.3118],[11.6216,47.3094],[11.6115,47.3217],[11.5992,47.3491],[11.5578,47.3524],[11.5005,47.3637],[11.5146,47.3888],[11.4511,47.4036],[11.4219,47.4454],[11.3898,47.4811],[11.4498,47.5078],[11.5061,47.5053],[11.5729,47.5151],[11.6012,47.5684],[11.6587,47.5847],[11.7756,47.591],[11.7547,47.5595],[11.7952,47.5573],[11.8333,47.5385],[11.8313,47.4849],[11.8278,47.4715],[11.781,47.4564],[11.7735,47.4358],[11.8197,47.4026],[11.8385,47.4085],[11.8397,47.3988],[11.8899,47.3798],[11.9234,47.3618],[11.9294,47.3357],[12.0234,47.3222],[12.0046,47.272],[12.0791,47.2757],[12.1106,47.2409],[12.0833,47.1962],[12.0938,47.1466],[12.1112,47.1402],[12.1366,47.0812],[12.0205,47.0476],[11.9797,47.0505],[11.9161,47.033],[11.8746,47.0106]]]}},{"type":"Feature","properties":{"code":"JO","name":"Sankt Johann im Pongau"},"geometry":{"type":"Polygon","coordinates":[[[13.278,47.0956],[13.2401,47.072],[13.2488,47.051],[13.081,47.0273],[13.0737,47.0139],[13.0038,47.0443],[13.0386,47.0909],[13.0213,47.1332],[13.0443,47.1937],[13.0413,47.2461],[13.0769,47.2878],[13.0649,47.2976],[13.0349,47.3052],[13.0287,47.3276],[13.0662,47.36],[13.0436,47.3713],[13.0538,47.4208],[13.0105,47.4585],[13.0186,47.4752],[13.0483,47.4927],[13.0468,47.521],[13.0946,47.5161],[13.1511,47.5481],[13.2121,47.5483],[13.2352,47.5305],[13.2729,47.5348],[13.2993,47.5132],[13.3684,47.5191],[13.4222,47.4617],[13.4365,47.4589],[13.5169,47.497],[13.5864,47.4753],[13.5934,47.4616],[13.5649,47.4186],[13.5731,47.3936],[13.6043,47.3302],[13.6083,47.284],[13.5808,47.2663],[13.58,47.2564],[13.5538,47.241],[13.485,47.2288],[13.4554,47.2179],[13.397,47.2069],[13.3726,47.217],[13.3334,47.1867],[13.3185,47.1595],[13.3368,47.1436],[13.3552,47.0976],[13.278,47.0956]]]}},{"type":"Feature","properties":{"code":"W","name":"Wien(Stadt)"},"geometry":{"type":"Polygon","coordinates":[[[16.4292,48.3209],[16.4416,48.2924],[16.4735,48.2769],[16.5034,48.2909],[16.5161,48.286],[16.5482,48.2635],[16.554,48.2395],[16.5375,48.2009],[16.551,48.1651],[16.5782,48.1449],[16.5773,48.1357],[16.515,48.1594],[16.4787,48.1551],[16.4382,48.1204],[16.414,48.1187],[16.3895,48.1259],[16.3671,48.1289],[16.3134,48.12],[16.2684,48.1341],[16.2201,48.1243],[16.2193,48.1286],[16.1992,48.155],[16.1831,48.1715],[16.2108,48.2101],[16.1863,48.2237],[16.2093,48.2646],[16.258,48.2434],[16.2902,48.271],[16.3644,48.2828],[16.3964,48.3231],[16.4292,48.3209]]]}},{"type":"Feature","properties":{"code":"KI","name":"Kirchdorf an der Krems"},"geometry":{"type":"Polygon","coordinates":[[[14.4218,47.6571],[14.3924,47.6364],[14.3273,47.6081],[14.2653,47.611],[14.2334,47.6511],[14.2067,47.653],[14.1785,47.6385],[14.094,47.62],[14.0516,47.6177],[14.0496,47.6374],[14.0563,47.6684],[14.0114,47.7014],[14.0599,47.7296],[14.0159,47.7753],[14.0302,47.8046],[14.0987,47.8455],[14.0797,47.8605],[13.9928,47.8798],[13.9788,47.9152],[13.9868,47.9488],[13.9588,47.9829],[13.9882,48.0032],[14.024,48.0137],[14.0387,48.0542],[14.0736,48.0513],[14.0967,48.0797],[14.1363,48.0991],[14.1889,48.0743],[14.1927,48.0542],[14.1821,48.0376],[14.1601,48.0188],[14.1794,47.9985],[14.1855,47.9972],[14.2203,47.9704],[14.2287,47.9745],[14.2688,47.9738],[14.2955,48.0038],[14.3182,47.9647],[14.2952,47.9125],[14.3613,47.9057],[14.4005,47.8834],[14.414,47.873],[14.3932,47.8234],[14.4153,47.7999],[14.4698,47.7713],[14.4906,47.7479],[14.4664,47.7076],[14.4895,47.6825],[14.4451,47.6559],[14.4218,47.6571]]]}},{"type":"Feature","properties":{"code":"KS","name":"Krems an der Donau(Stadt)"},"geometry":{"type":"Polygon","coordinates":[[[15.6469,48.4462],[15.6427,48.4177],[15.6734,48.4088],[15.7264,48.3794],[15.6871,48.3705],[15.6678,48.369],[15.6289,48.3719],[15.6061,48.4031],[15.5605,48.3919],[15.533,48.4222],[15.537,48.4397],[15.5959,48.4438],[15.6312,48.45],[15.6469,48.4462]]]}},{"type":"Feature","properties":{"code":"FK","name":"Feldkirch"},"geometry":{"type":"Polygon","coordinates":[[[9.6571,47.2167],[9.6383,47.2124],[9.6208,47.1522],[9.5797,47.1717],[9.585,47.2052],[9.5676,47.2415],[9.531,47.2712],[9.5594,47.3008],[9.5885,47.3182],[9.5966,47.3381],[9.6199,47.363],[9.6498,47.3681],[9.6715,47.3442],[9.7147,47.3382],[9.7231,47.3459],[9.7307,47.3276],[9.8315,47.285],[9.8501,47.2688],[9.8275,47.2537],[9.7822,47.2414],[9.7568,47.2375],[9.7546,47.2154],[9.7461,47.2097],[9.7248,47.2074],[9.7083,47.1954],[9.6698,47.2064],[9.6571,47.2167]]]}},{"type":"Feature","properties":{"code":"SE","name":"Steyr-Land"},"geometry":{"type":"Polygon","coordinates":[[[14.2287,47.9745],[14.2203,47.9704],[14.1855,47.9972],[14.1794,47.9985],[14.1601,48.0188],[14.1821,48.0376],[14.1927,48.0542],[14.1889,48.0743],[14.2043,48.0845],[14.2413,48.0869],[14.2508,48.1053],[14.3291,48.1144],[14.3352,48.1238],[14.3968,48.1335],[14.3979,48.1291],[14.4244,48.1256],[14.48,48.105],[14.4588,48.0892],[14.4113,48.0767],[14.3873,48.0606],[14.3779,48.0447],[14.4174,48.0241],[14.4571,48.0436],[14.493,48.0114],[14.4941,47.9986],[14.5561,47.9804],[14.6172,47.9486],[14.65,47.9427],[14.6716,47.9353],[14.7444,47.918],[14.7705,47.8801],[14.7637,47.8728],[14.7109,47.8512],[14.7237,47.8327],[14.7128,47.7906],[14.7394,47.7492],[14.6961,47.7656],[14.6472,47.726],[14.6149,47.731],[14.5516,47.7196],[14.4895,47.6825],[14.4664,47.7076],[14.4906,47.7479],[14.4698,47.7713],[14.4153,47.7999],[14.3932,47.8234],[14.414,47.873],[14.4005,47.8834],[14.3613,47.9057],[14.2952,47.9125],[14.3182,47.9647],[14.2955,48.0038],[14.2688,47.9738],[14.2287,47.9745]]]}},{"type":"Feature","properties":{"code":"WZ","name":"Weiz"},"geometry":{"type":"Polygon","coordinates":[[[15.8413,47.0821],[15.8755,47.0658],[15.8786,47.0411],[15.8675,47.0292],[15.8481,47.0214],[15.8039,47.0443],[15.7647,47.0166],[15.7257,47.0253],[15.6856,47.0306],[15.6781,47.0586],[15.641,47.0666],[15.6337,47.0893],[15.6593,47.1247],[15.6251,47.1426],[15.584,47.1683],[15.5912,47.1892],[15.5237,47.2004],[15.5094,47.1908],[15.4688,47.2101],[15.4665,47.1989],[15.439,47.2515],[15.4673,47.262],[15.4147,47.2845],[15.3977,47.3126],[15.4245,47.362],[15.4825,47.3585],[15.5326,47.363],[15.5378,47.4029],[15.5834,47.4136],[15.598,47.4739],[15.6387,47.4849],[15.6499,47.5048],[15.6951,47.5197],[15.7485,47.553],[15.7709,47.564],[15.8025,47.5768],[15.9065,47.5602],[15.915,47.5309],[15.8975,47.5106],[15.8458,47.4967],[15.7707,47.5102],[15.7117,47.4754],[15.7284,47.462],[15.7495,47.4601],[15.7747,47.3949],[15.8016,47.3734],[15.7445,47.3517],[15.7352,47.3102],[15.7598,47.2899],[15.761,47.2415],[15.7669,47.2219],[15.8263,47.1788],[15.8621,47.1618],[15.8904,47.1316],[15.8558,47.1265],[15.8685,47.0964],[15.8413,47.0821]]]}},{"type":"Feature","properties":{"code":"IM","name":"Imst"},"geometry":{"type":"Polygon","coordinates":[[[11.0905,46.9892],[11.1647,46.9662],[11.1685,46.9456],[11.1158,46.932],[11.1021,46.8904],[11.0723,46.8565],[11.0838,46.823],[11.0398,46.8056],[11.0224,46.7664],[10.9185,46.7755],[10.8833,46.7634],[10.7963,46.7918],[10.7304,46.789],[10.7642,46.8231],[10.7842,46.8377],[10.7947,46.8817],[10.7738,46.9096],[10.7989,46.98],[10.7981,47.0121],[10.822,47.026],[10.7925,47.0657],[10.7582,47.0938],[10.7317,47.1049],[10.6734,47.1565],[10.6771,47.1629],[10.6793,47.2032],[10.6442,47.2328],[10.6056,47.2358],[10.5656,47.2483],[10.5692,47.278],[10.5387,47.2946],[10.5416,47.297],[10.5958,47.2738],[10.652,47.268],[10.6099,47.329],[10.6926,47.3372],[10.7069,47.3624],[10.7342,47.3577],[10.7731,47.3823],[10.8195,47.3864],[10.8627,47.3374],[10.9141,47.3527],[10.9223,47.3688],[10.9861,47.3694],[10.9916,47.3967],[11.0168,47.3968],[10.9933,47.3533],[10.9953,47.3128],[11.0308,47.3072],[11.03,47.2952],[11.059,47.2982],[11.0698,47.2535],[11.0594,47.2464],[11.0951,47.2257],[11.0541,47.2046],[11.0434,47.1813],[11.0652,47.1421],[11.0639,47.1143],[11.1191,47.0467],[11.0905,46.9892]]]}},{"type":"Feature","properties":{"code":"SO","name":"Südoststeiermark"},"geometry":{"type":"Polygon","coordinates":[[[15.9949,46.7309],[16.0435,46.6859],[16.0028,46.6788],[15.9481,46.6894],[15.8782,46.72],[15.8315,46.722],[15.7535,46.6983],[15.651,46.7061],[15.6525,46.7347],[15.7189,46.7237],[15.7215,46.7483],[15.7517,46.7643],[15.7186,46.7822],[15.6882,46.7835],[15.686,46.8306],[15.6925,46.8628],[15.6661,46.8873],[15.6441,46.8971],[15.6093,46.9011],[15.5998,46.9309],[15.5962,46.9783],[15.6171,47.003],[15.6504,46.9841],[15.6835,46.9807],[15.7302,47.0041],[15.7257,47.0253],[15.7647,47.0166],[15.8039,47.0443],[15.8481,47.0214],[15.8675,47.0292],[15.8786,47.0411],[15.9385,47.0593],[15.9572,47.0589],[15.971,47.0537],[15.9764,47.0255],[16.0199,47.0076],[16.0223,47.0089],[16.0666,47.0025],[16.1088,46.9657],[16.0965,46.9544],[16.0959,46.9347],[16.0551,46.9107],[16.0365,46.8932],[16.0245,46.8883],[15.9973,46.8358],[15.9858,46.7524],[15.9949,46.7309]]]}},{"type":"Feature","properties":{"code":"L","name":"Linz(Stadt)"},"geometry":{"type":"Polygon","coordinates":[[[14.3046,48.3585],[14.3496,48.3422],[14.3603,48.3252],[14.3347,48.3094],[14.3454,48.2842],[14.4046,48.2576],[14.4098,48.249],[14.3866,48.2313],[14.3256,48.2119],[14.2636,48.2473],[14.276,48.2762],[14.2491,48.3104],[14.2578,48.327],[14.2564,48.3422],[14.2929,48.3786],[14.3046,48.3585]]]}},{"type":"Feature","properties":{"code":"GD","name":"Gmünd"},"geometry":{"type":"Polygon","coordinates":[[[14.9048,48.6223],[14.8697,48.6173],[14.7981,48.5919],[14.8122,48.5544],[14.7373,48.5534],[14.692,48.5849],[14.7221,48.603],[14.7245,48.6763],[14.7418,48.7019],[14.8092,48.7345],[14.8093,48.7781],[14.8303,48.7811],[14.9648,48.7638],[14.974,48.8753],[14.9889,48.8959],[14.9926,48.8979],[14.9776,48.9565],[14.9989,48.9926],[15.0228,49.0211],[15.0655,49.0004],[15.1597,48.9905],[15.1604,48.9417],[15.1881,48.9234],[15.1889,48.8801],[15.1638,48.8723],[15.1555,48.8266],[15.1712,48.8158],[15.157,48.7981],[15.1483,48.801],[15.1182,48.7602],[15.1458,48.7376],[15.1499,48.7057],[15.1403,48.689],[15.1211,48.7137],[15.0543,48.7026],[14.9937,48.7048],[14.9777,48.6759],[15.0183,48.6501],[15.0014,48.6268],[14.9355,48.6113],[14.9048,48.6223]]]}},{"type":"Feature","properties":{"code":"MA","name":"Mattersburg"},"geometry":{"type":"Polygon","coordinates":[[[16.4227,47.6657],[16.4112,47.6499],[16.3813,47.6361],[16.3737,47.6429],[16.3579,47.68],[16.3102,47.6876],[16.3103,47.6959],[16.2962,47.7158],[16.2968,47.7427],[16.3005,47.7616],[16.2699,47.7915],[16.2871,47.8119],[16.3168,47.785],[16.3559,47.8212],[16.3635,47.8237],[16.4044,47.7992],[16.44,47.8006],[16.4481,47.8038],[16.4665,47.7886],[16.5057,47.7795],[16.4986,47.7644],[16.522,47.7451],[16.5388,47.7404],[16.5376,47.7371],[16.5416,47.7123],[16.4485,47.6967],[16.4227,47.6657]]]}},{"type":"Feature","properties":{"code":"KL","name":"Klagenfurt Land"},"geometry":{"type":"Polygon","coordinates":[[[14.4879,46.5063],[14.4629,46.4597],[14.4353,46.4433],[14.3089,46.431],[14.284,46.4439],[14.237,46.4333],[14.1919,46.4443],[14.164,46.434],[14.1122,46.4792],[14.1248,46.535],[14.0851,46.5502],[14.0947,46.56],[14.0611,46.5819],[14.0705,46.6165],[14.0527,46.6615],[14.113,46.6751],[14.165,46.6791],[14.1867,46.7012],[14.2342,46.7006],[14.2227,46.654],[14.2413,46.6214],[14.2399,46.6067],[14.2491,46.5785],[14.2886,46.5758],[14.411,46.6291],[14.4133,46.6412],[14.365,46.6607],[14.3197,46.6675],[14.2957,46.6963],[14.3927,46.7174],[14.4195,46.7323],[14.4653,46.7173],[14.4675,46.6883],[14.4982,46.6868],[14.5358,46.6611],[14.5069,46.6491],[14.5266,46.6083],[14.4888,46.5644],[14.4663,46.5686],[14.4575,46.5647],[14.4522,46.5183],[14.4879,46.5063]]]}},{"type":"Feature","properties":{"code":"OP","name":"Oberpullendorf"},"geometry":{"type":"Polygon","coordinates":[[[16.6535,47.5007],[16.6632,47.4561],[16.613,47.432],[16.5891,47.4232],[16.5769,47.4068],[16.4598,47.4134],[16.4581,47.3676],[16.4349,47.3533],[16.3854,47.3452],[16.3788,47.3466],[16.3705,47.353],[16.3518,47.3955],[16.3158,47.4051],[16.2822,47.4555],[16.322,47.4941],[16.3408,47.5166],[16.3174,47.5428],[16.3149,47.5431],[16.3143,47.5658],[16.3321,47.59],[16.3455,47.6032],[16.3737,47.6429],[16.3813,47.6361],[16.4112,47.6499],[16.423,47.6651],[16.499,47.6398],[16.5176,47.6458],[16.5914,47.6179],[16.6541,47.6227],[16.6764,47.5825],[16.6643,47.5691],[16.7068,47.5236],[16.6535,47.5007]]]}},{"type":"Feature","properties":{"code":"DO","name":"Dornbirn"},"geometry":{"type":"Polygon","coordinates":[[[9.7231,47.3459],[9.7147,47.3382],[9.6715,47.3442],[9.6498,47.3681],[9.6738,47.3919],[9.6445,47.4358],[9.6597,47.452],[9.6818,47.4635],[9.6985,47.4495],[9.7125,47.4502],[9.736,47.4454],[9.7791,47.4446],[9.802,47.4473],[9.8134,47.4379],[9.8015,47.4166],[9.8387,47.379],[9.8446,47.3609],[9.8111,47.3461],[9.8166,47.3128],[9.8457,47.303],[9.8315,47.285],[9.7307,47.3276],[9.7231,47.3459]]]}},{"type":"Feature","properties":{"code":"TA","name":"Tamsweg"},"geometry":{"type":"Polygon","coordinates":[[[13.8019,46.9516],[13.7854,46.9443],[13.7725,46.9775],[13.7,47.0037],[13.6873,47.0403],[13.6384,47.056],[13.595,47.0564],[13.4283,47.0818],[13.4071,47.0697],[13.3552,47.0976],[13.3368,47.1436],[13.3185,47.1595],[13.3334,47.1867],[13.3726,47.217],[13.397,47.2069],[13.4554,47.2179],[13.485,47.2288],[13.5538,47.241],[13.58,47.2564],[13.5808,47.2663],[13.6083,47.284],[13.6966,47.2606],[13.7126,47.26],[13.7614,47.2667],[13.8261,47.2937],[13.8244,47.2675],[13.865,47.2526],[13.8655,47.2204],[13.8973,47.1873],[13.9937,47.1427],[13.9886,47.1276],[13.9446,47.137],[13.8792,47.1008],[13.9069,47.071],[13.8645,47.02],[13.8654,46.9966],[13.8019,46.9516]]]}},{"type":"Feature","properties":{"code":"GR","name":"Grieskirchen"},"geometry":{"type":"Polygon","coordinates":[[[13.784,48.1495],[13.7729,48.1278],[13.7548,48.1186],[13.7106,48.1246],[13.6662,48.1284],[13.665,48.1265],[13.607,48.1332],[13.6126,48.1696],[13.6119,48.203],[13.5856,48.2137],[13.5852,48.2263],[13.5685,48.2441],[13.5917,48.2544],[13.6289,48.2513],[13.6508,48.2638],[13.6549,48.2856],[13.6725,48.3051],[13.7106,48.3142],[13.7113,48.3334],[13.7164,48.3323],[13.7176,48.3781],[13.7049,48.3867],[13.686,48.4076],[13.6974,48.4355],[13.7557,48.4399],[13.7761,48.4388],[13.8075,48.4211],[13.8413,48.4171],[13.8701,48.4265],[13.9187,48.39],[13.8987,48.3729],[13.9119,48.3397],[13.8542,48.2953],[13.8561,48.2909],[13.9083,48.2846],[13.8838,48.2791],[13.8961,48.2526],[13.9317,48.2476],[13.9687,48.2465],[13.9922,48.2378],[13.9946,48.218],[13.931,48.2145],[13.9172,48.2215],[13.844,48.206],[13.8739,48.1644],[13.8282,48.1751],[13.8051,48.147],[13.784,48.1495]]]}},{"type":"Feature","properties":{"code":"P","name":"Sankt Pölten(Stadt)"},"geometry":{"type":"Polygon","coordinates":[[[15.7373,48.267],[15.7359,48.2587],[15.7379,48.2305],[15.6937,48.1972],[15.6467,48.1763],[15.6476,48.123],[15.5854,48.1294],[15.5913,48.1665],[15.56,48.1668],[15.5766,48.2131],[15.6014,48.2328],[15.6702,48.262],[15.7373,48.267]]]}},{"type":"Feature","properties":{"code":"UU","name":"Urfahr-Umgebung"},"geometry":{"type":"Polygon","coordinates":[[[14.1465,48.3207],[14.116,48.3098],[14.0673,48.32],[14.0267,48.3387],[14.0232,48.3542],[14.0312,48.3738],[14.0545,48.3871],[14.1054,48.4452],[14.1344,48.4364],[14.1805,48.4579],[14.1793,48.5043],[14.1957,48.525],[14.1718,48.533],[14.1748,48.5505],[14.1939,48.5809],[14.2225,48.5871],[14.2713,48.5816],[14.3342,48.5524],[14.3946,48.5781],[14.4073,48.5512],[14.4373,48.5429],[14.3741,48.535],[14.3793,48.4932],[14.4016,48.481],[14.404,48.4583],[14.415,48.4322],[14.4674,48.3963],[14.4335,48.3661],[14.4415,48.3566],[14.4609,48.3529],[14.4789,48.3288],[14.4831,48.3032],[14.4437,48.2967],[14.4183,48.3051],[14.4046,48.2576],[14.3454,48.2842],[14.3347,48.3094],[14.3603,48.3252],[14.3496,48.3422],[14.3046,48.3585],[14.2929,48.3786],[14.2564,48.3422],[14.2578,48.327],[14.2491,48.3104],[14.2344,48.3083],[14.2046,48.322],[14.1456,48.3158],[14.1465,48.3207]]]}},{"type":"Feature","properties":{"code":"MU","name":"Murau"},"geometry":{"type":"Polygon","coordinates":[[[14.08,47.0225],[13.9685,46.9637],[13.9475,46.9411],[13.8826,46.9182],[13.8161,46.9189],[13.7854,46.9443],[13.8019,46.9516],[13.8654,46.9966],[13.8645,47.02],[13.9069,47.071],[13.8792,47.1008],[13.9446,47.137],[13.9886,47.1276],[13.9937,47.1427],[13.8973,47.1873],[13.8655,47.2204],[13.865,47.2526],[13.9313,47.2492],[13.9832,47.2696],[14.0132,47.2625],[14.0481,47.2894],[14.0993,47.2632],[14.1131,47.2683],[14.1416,47.2971],[14.1919,47.3043],[14.2285,47.3296],[14.3332,47.2701],[14.3726,47.2676],[14.3905,47.2252],[14.3936,47.1864],[14.4424,47.1635],[14.4826,47.1681],[14.5156,47.1583],[14.5475,47.1141],[14.541,47.1101],[14.5609,47.0722],[14.5868,47.0121],[14.528,47.0096],[14.5058,47.0268],[14.4727,47.0081],[14.4311,47.0009],[14.331,47.0296],[14.2385,47.0288],[14.2359,47.0263],[14.2052,47.0764],[14.1634,47.0529],[14.1334,47.0628],[14.08,47.0225]]]}},{"type":"Feature","properties":{"code":"IL","name":"Innsbruck-Land"},"geometry":{"type":"Polygon","coordinates":[[[11.4353,46.9746],[11.402,46.9655],[11.3595,46.9907],[11.3209,46.9929],[11.2497,46.9747],[11.1647,46.9662],[11.0905,46.9892],[11.1191,47.0467],[11.0639,47.1143],[11.0652,47.1421],[11.0434,47.1813],[11.0541,47.2046],[11.0951,47.2257],[11.0594,47.2464],[11.0698,47.2535],[11.059,47.2982],[11.03,47.2952],[11.0308,47.3072],[10.9953,47.3128],[10.9933,47.3533],[11.0169,47.3969],[11.1159,47.3962],[11.1285,47.4128],[11.2059,47.4345],[11.2539,47.4288],[11.2228,47.3979],[11.273,47.3985],[11.2915,47.4276],[11.339,47.4505],[11.4219,47.4454],[11.4511,47.4036],[11.5146,47.3888],[11.5005,47.3637],[11.5578,47.3524],[11.5992,47.3491],[11.6115,47.3217],[11.6216,47.3094],[11.6324,47.3118],[11.6918,47.2622],[11.7041,47.2056],[11.6672,47.1983],[11.6728,47.1607],[11.6332,47.1406],[11.6346,47.1045],[11.659,47.0534],[11.6497,47.0472],[11.6277,47.0138],[11.5904,47.0059],[11.539,46.9846],[11.4792,47.0115],[11.4353,46.9746]],[[11.3056,47.265],[11.346,47.2434],[11.3901,47.2384],[11.3907,47.214],[11.4544,47.2136],[11.4324,47.2476],[11.4548,47.2604],[11.4535,47.2679],[11.4168,47.2951],[11.4265,47.3211],[11.4279,47.3469],[11.3584,47.3605],[11.3318,47.3433],[11.3364,47.3141],[11.3066,47.2925],[11.3056,47.265]]]}},{"type":"Feature","properties":{"code":"E","name":"Eisenstadt(Stadt)"},"geometry":{"type":"Polygon","coordinates":[[[16.5678,47.8843],[16.5816,47.8397],[16.5397,47.8212],[16.5478,47.7946],[16.532,47.7939],[16.5053,47.8156],[16.4851,47.8695],[16.5275,47.8752],[16.5678,47.8843]]]}},{"type":"Feature","properties":{"code":"HF","name":"Hartberg-Fürstenfeld"},"geometry":{"type":"Polygon","coordinates":[[[15.9385,47.0593],[15.8786,47.0411],[15.8755,47.0658],[15.8413,47.0821],[15.8685,47.0964],[15.8558,47.1265],[15.8904,47.1316],[15.8621,47.1618],[15.8263,47.1788],[15.7669,47.2219],[15.761,47.2415],[15.7598,47.2899],[15.7352,47.3102],[15.7445,47.3517],[15.8016,47.3734],[15.7747,47.3949],[15.7495,47.4601],[15.7284,47.462],[15.7117,47.4754],[15.7707,47.5102],[15.8458,47.4967],[15.8975,47.5106],[15.915,47.5309],[15.9596,47.5183],[16.0012,47.5163],[16.0662,47.4868],[16.0885,47.5076],[16.1141,47.4975],[16.1391,47.4619],[16.1729,47.4228],[16.0852,47.4096],[16.0615,47.3847],[16.0312,47.3797],[16.0351,47.3726],[16.0313,47.3718],[16.0356,47.356],[16.0606,47.3151],[16.0595,47.3105],[16.0774,47.272],[16.0876,47.2339],[16.0926,47.1989],[16.1037,47.184],[16.1104,47.1672],[16.1161,47.1336],[16.0959,47.1126],[16.0877,47.0882],[16.0994,47.0614],[16.1318,47.0125],[16.1556,46.9912],[16.1228,46.991],[16.1088,46.9657],[16.0666,47.0025],[16.0223,47.0089],[16.0199,47.0076],[15.9764,47.0255],[15.971,47.0537],[15.9572,47.0589],[15.9385,47.0593]]]}},{"type":"Feature","properties":{"code":"GU","name":"Graz-Umgebung"},"geometry":{"type":"Polygon","coordinates":[[[15.6856,47.0306],[15.7257,47.0253],[15.7302,47.0041],[15.6835,46.9807],[15.6504,46.9841],[15.6171,47.003],[15.6198,47.0115],[15.5885,47.0194],[15.5435,46.9852],[15.5476,46.9775],[15.5207,46.9212],[15.4874,46.9109],[15.4801,46.913],[15.4509,46.9052],[15.4292,46.8814],[15.415,46.8782],[15.3497,46.9249],[15.3491,46.9536],[15.2991,46.9828],[15.3132,46.9939],[15.2612,47.0266],[15.266,47.0357],[15.2638,47.0453],[15.2271,47.0869],[15.2201,47.0842],[15.1901,47.1175],[15.1724,47.1408],[15.186,47.1686],[15.1627,47.2032],[15.0538,47.2117],[15.0494,47.2275],[15.0988,47.2621],[15.148,47.2816],[15.1608,47.2846],[15.1971,47.3215],[15.2439,47.3437],[15.2871,47.3422],[15.341,47.3126],[15.3977,47.3126],[15.4147,47.2845],[15.4673,47.262],[15.439,47.2515],[15.4665,47.1989],[15.4688,47.2101],[15.5094,47.1908],[15.5237,47.2004],[15.5889,47.1907],[15.5912,47.1892],[15.584,47.1683],[15.6251,47.1426],[15.6593,47.1247],[15.6337,47.0893],[15.641,47.0666],[15.6781,47.0586],[15.6856,47.0306]],[[15.361,47.0518],[15.3741,47.0234],[15.4618,47.0123],[15.4896,47.0211],[15.5053,47.0406],[15.5086,47.0745],[15.5222,47.1205],[15.3985,47.1328],[15.3602,47.1199],[15.3519,47.1017],[15.381,47.0703],[15.361,47.0518]]]}},{"type":"Feature","properties":{"code":"VL","name":"Villach Land"},"geometry":{"type":"Polygon","coordinates":[[[14.0851,46.5502],[14.1248,46.535],[14.1122,46.4792],[14.0413,46.4934],[14.0073,46.4817],[13.9764,46.4986],[13.9127,46.5215],[13.7997,46.5069],[13.7265,46.5235],[13.6918,46.5214],[13.6226,46.5426],[13.5477,46.5539],[13.5155,46.5492],[13.5049,46.5667],[13.5584,46.5913],[13.5549,46.6313],[13.5731,46.6574],[13.4335,46.6576],[13.439,46.6814],[13.4233,46.7297],[13.4556,46.7704],[13.4937,46.755],[13.5414,46.7569],[13.5883,46.7445],[13.6198,46.7769],[13.6509,46.7667],[13.6853,46.7928],[13.7588,46.7859],[13.7743,46.794],[13.8244,46.7823],[13.8573,46.7803],[13.8779,46.7605],[13.9419,46.7556],[13.9617,46.7161],[13.921,46.6962],[13.954,46.6663],[13.8915,46.6496],[13.8423,46.6529],[13.8094,46.6685],[13.7924,46.6333],[13.7647,46.6354],[13.7146,46.5921],[13.7458,46.5661],[13.7975,46.5685],[13.8474,46.5807],[13.9406,46.5775],[13.9614,46.5838],[13.9792,46.5941],[13.9251,46.6155],[13.9277,46.6476],[13.9674,46.6534],[14.0139,46.6663],[14.0527,46.6615],[14.0705,46.6165],[14.0611,46.5819],[14.0947,46.56],[14.0851,46.5502]]]}},{"type":"Feature","properties":{"code":"OW","name":"Oberwart"},"geometry":{"type":"Polygon","coordinates":[[[16.4222,47.1975],[16.4654,47.1686],[16.4474,47.1281],[16.3974,47.1302],[16.3948,47.1359],[16.3287,47.1404],[16.3199,47.1533],[16.3288,47.1789],[16.239,47.2126],[16.1946,47.2142],[16.1779,47.2002],[16.152,47.2014],[16.1264,47.229],[16.0989,47.2342],[16.0876,47.2339],[16.0774,47.272],[16.0595,47.3105],[16.0606,47.3151],[16.0356,47.356],[16.0313,47.3718],[16.0351,47.3726],[16.0312,47.3797],[16.0615,47.3847],[16.0852,47.4096],[16.1729,47.4228],[16.2081,47.4251],[16.2543,47.4485],[16.2822,47.4555],[16.3158,47.4051],[16.3518,47.3955],[16.3705,47.353],[16.3788,47.3466],[16.3854,47.3452],[16.4349,47.3533],[16.4642,47.3362],[16.4793,47.2755],[16.4316,47.2507],[16.4439,47.2341],[16.418,47.2057],[16.4222,47.1975]]]}},{"type":"Feature","properties":{"code":"B","name":"Bregenz"},"geometry":{"type":"Polygon","coordinates":[[[9.9299,47.2898],[9.8527,47.2685],[9.8315,47.285],[9.8457,47.303],[9.8166,47.3128],[9.8111,47.3461],[9.8446,47.3609],[9.8387,47.379],[9.8015,47.4166],[9.8134,47.4379],[9.802,47.4473],[9.7791,47.4446],[9.736,47.4454],[9.7125,47.4502],[9.6985,47.4495],[9.6818,47.4635],[9.6597,47.452],[9.6075,47.4709],[9.5631,47.4956],[9.5822,47.5002],[9.6137,47.5207],[9.6362,47.5247],[9.6875,47.5099],[9.7491,47.5107],[9.7324,47.5344],[9.7559,47.5728],[9.7762,47.594],[9.8206,47.5883],[9.83,47.5452],[9.8748,47.5292],[9.9653,47.5236],[9.9998,47.4836],[10.0377,47.4898],[10.1042,47.4311],[10.0707,47.4084],[10.1001,47.3554],[10.1196,47.3762],[10.1699,47.3719],[10.1953,47.39],[10.2373,47.3742],[10.1998,47.3271],[10.2163,47.3117],[10.1724,47.2797],[10.198,47.2372],[10.1377,47.2522],[10.099,47.2267],[10.0646,47.2301],[10.042,47.2528],[10.0041,47.2744],[9.9716,47.2686],[9.9299,47.2898]]]}},{"type":"Feature","properties":{"code":"LF","name":"Lilienfeld"},"geometry":{"type":"Polygon","coordinates":[[[15.6252,47.8754],[15.6301,47.8552],[15.6322,47.8163],[15.6128,47.7516],[15.5294,47.7464],[15.5077,47.7683],[15.462,47.7702],[15.3804,47.8241],[15.3462,47.8262],[15.3009,47.8215],[15.2899,47.7917],[15.2183,47.7965],[15.2015,47.8254],[15.1659,47.85],[15.2561,47.8698],[15.2633,47.8818],[15.2706,47.8786],[15.3982,47.9034],[15.4336,47.958],[15.4476,47.9609],[15.4995,47.9809],[15.5346,48.0087],[15.5281,48.0569],[15.5597,48.0721],[15.6024,48.0681],[15.691,48.0893],[15.719,48.084],[15.7332,48.078],[15.7788,48.072],[15.8134,48.0785],[15.8465,48.0627],[15.8766,48.0765],[15.8836,48.0587],[15.9357,48.0436],[15.9492,47.9988],[15.8696,47.9979],[15.873,47.9606],[15.8199,47.9384],[15.7599,47.9353],[15.6914,47.8956],[15.668,47.9034],[15.6252,47.8754]]]}},{"type":"Feature","properties":{"code":"HA","name":"Hallein"},"geometry":{"type":"Polygon","coordinates":[[[13.4775,47.5308],[13.5169,47.497],[13.4365,47.4589],[13.4222,47.4617],[13.3684,47.5191],[13.2993,47.5132],[13.2729,47.5348],[13.2352,47.5305],[13.2121,47.5483],[13.1511,47.5481],[13.0946,47.5161],[13.0468,47.521],[13.0324,47.5361],[13.0722,47.5904],[13.0987,47.6343],[13.0793,47.6885],[13.0467,47.7132],[13.0527,47.7245],[13.0836,47.7318],[13.0818,47.7441],[13.1573,47.7595],[13.1728,47.7532],[13.1958,47.7664],[13.2039,47.7491],[13.2339,47.7278],[13.2569,47.6914],[13.2996,47.6752],[13.3294,47.6796],[13.336,47.6762],[13.4315,47.6632],[13.4503,47.6356],[13.4906,47.6309],[13.5211,47.6237],[13.506,47.5825],[13.482,47.5622],[13.4775,47.5308]]]}},{"type":"Feature","properties":{"code":"KB","name":"Kitzbühel"},"geometry":{"type":"Polygon","coordinates":[[[12.4796,47.3688],[12.4958,47.3379],[12.4789,47.3269],[12.4425,47.3291],[12.3752,47.3118],[12.3358,47.329],[12.2971,47.3286],[12.2647,47.3027],[12.2553,47.3085],[12.2196,47.3117],[12.1652,47.3021],[12.1151,47.307],[12.0791,47.2757],[12.0046,47.272],[12.0234,47.3222],[12.0631,47.3326],[12.0849,47.3749],[12.0688,47.4208],[12.1102,47.4654],[12.1149,47.4645],[12.1297,47.4811],[12.1498,47.4859],[12.2042,47.4659],[12.2494,47.479],[12.3094,47.4748],[12.3225,47.5032],[12.3202,47.5667],[12.3104,47.5759],[12.309,47.5824],[12.3247,47.5928],[12.321,47.5978],[12.3406,47.6909],[12.3642,47.6844],[12.4297,47.6969],[12.4418,47.6746],[12.4998,47.6257],[12.5259,47.6313],[12.5757,47.6329],[12.5752,47.6055],[12.6542,47.5886],[12.6288,47.5501],[12.6548,47.5373],[12.6658,47.5066],[12.7002,47.4784],[12.6453,47.4687],[12.6329,47.4326],[12.6252,47.423],[12.5792,47.393],[12.5459,47.3986],[12.5067,47.3947],[12.4796,47.3688]]]}},{"type":"Feature","properties":{"code":"GM","name":"Gmunden"},"geometry":{"type":"Polygon","coordinates":[[[13.7615,47.5208],[13.7499,47.5021],[13.7315,47.4921],[13.722,47.4832],[13.7181,47.4742],[13.7233,47.4626],[13.6684,47.4632],[13.6095,47.4756],[13.5864,47.4753],[13.5169,47.497],[13.4775,47.5308],[13.482,47.5622],[13.506,47.5825],[13.5211,47.6237],[13.4906,47.6309],[13.5177,47.6761],[13.5517,47.7147],[13.4774,47.7247],[13.437,47.7391],[13.4661,47.7867],[13.5362,47.7767],[13.578,47.7619],[13.6065,47.7737],[13.642,47.8155],[13.6158,47.8258],[13.6185,47.8532],[13.6637,47.8783],[13.6723,47.9112],[13.7084,47.928],[13.7455,47.9594],[13.7412,47.9813],[13.7958,47.9971],[13.7957,48.0079],[13.8127,48.0278],[13.8367,48.0471],[13.8505,48.0548],[13.8829,48.0149],[13.9228,48.0304],[13.9457,48.0317],[13.9882,48.0032],[13.9588,47.9829],[13.9868,47.9488],[13.9788,47.9152],[13.9928,47.8798],[14.0797,47.8605],[14.0987,47.8455],[14.0302,47.8046],[14.0159,47.7753],[14.0599,47.7296],[14.0114,47.7014],[13.8967,47.718],[13.8611,47.7277],[13.7785,47.7189],[13.7087,47.657],[13.6954,47.5798],[13.7363,47.5775],[13.7615,47.5208]]]}},{"type":"Feature","properties":{"code":"WY","name":"Waidhofen an der Ybbs(Stadt)"},"geometry":{"type":"Polygon","coordinates":[[[14.9216,47.9747],[14.8342,47.9702],[14.8214,47.9472],[14.8368,47.9137],[14.7705,47.8801],[14.7444,47.918],[14.6716,47.9353],[14.65,47.9427],[14.6616,47.9724],[14.6905,47.9921],[14.8152,47.9932],[14.8418,48.0134],[14.8603,48.0195],[14.8606,48.0236],[14.9216,47.9747]]]}},{"type":"Feature","properties":{"code":"VB","name":"Vöcklabruck"},"geometry":{"type":"Polygon","coordinates":[[[13.6185,47.8532],[13.6158,47.8258],[13.642,47.8155],[13.6065,47.7737],[13.578,47.7619],[13.5362,47.7767],[13.5303,47.7976],[13.4914,47.7897],[13.4512,47.8043],[13.3988,47.7984],[13.3517,47.8105],[13.313,47.8134],[13.2872,47.8308],[13.2939,47.8643],[13.2709,47.892],[13.2819,47.9052],[13.2811,47.9553],[13.3083,47.9646],[13.3593,47.9403],[13.3639,47.9447],[13.3724,47.9726],[13.3047,48.0084],[13.298,48.0299],[13.3308,48.0699],[13.354,48.0558],[13.3837,48.0518],[13.3928,48.0593],[13.4057,48.0854],[13.4514,48.1052],[13.4601,48.1075],[13.4772,48.1069],[13.5524,48.1204],[13.5829,48.1155],[13.607,48.1332],[13.665,48.1265],[13.6662,48.1284],[13.7106,48.1246],[13.7548,48.1186],[13.7879,48.103],[13.7969,48.1038],[13.8235,48.0779],[13.8271,48.0784],[13.8367,48.0471],[13.8127,48.0278],[13.7957,48.0079],[13.7958,47.9971],[13.7412,47.9813],[13.7455,47.9594],[13.7084,47.928],[13.6723,47.9112],[13.6637,47.8783],[13.6185,47.8532]]]}},{"type":"Feature","properties":{"code":"LA","name":"Landeck"},"geometry":{"type":"Polygon","coordinates":[[[10.242,46.9322],[10.2279,46.8908],[10.194,46.867],[10.1452,46.8515],[10.0985,46.9279],[10.121,46.9385],[10.1601,46.9843],[10.1348,47.0299],[10.1572,47.0494],[10.1338,47.0785],[10.1452,47.0975],[10.2133,47.1582],[10.3959,47.1744],[10.4252,47.1943],[10.4486,47.2329],[10.4946,47.2383],[10.5493,47.2359],[10.5656,47.2483],[10.6056,47.2358],[10.6442,47.2328],[10.6793,47.2032],[10.6771,47.1629],[10.6734,47.1565],[10.7317,47.1049],[10.7582,47.0938],[10.7925,47.0657],[10.822,47.026],[10.7981,47.0121],[10.7989,46.98],[10.7738,46.9096],[10.7947,46.8817],[10.7842,46.8377],[10.7642,46.8231],[10.6934,46.8534],[10.6677,46.876],[10.6246,46.8649],[10.5708,46.8429],[10.47,46.8554],[10.465,46.8848],[10.4897,46.9383],[10.4571,46.9519],[10.3896,47.0011],[10.3493,46.9912],[10.3097,46.9507],[10.3173,46.9265],[10.242,46.9322]]]}},{"type":"Feature","properties":{"code":"BM","name":"Bruck-Mürzzuschlag"},"geometry":{"type":"Polygon","coordinates":[[[15.4245,47.362],[15.3977,47.3126],[15.341,47.3126],[15.2871,47.3422],[15.2439,47.3437],[15.2323,47.3377],[15.2005,47.3598],[15.1785,47.4038],[15.1619,47.4434],[15.1112,47.4391],[15.0569,47.4722],[15.0402,47.5269],[14.9876,47.5364],[14.9786,47.5425],[14.955,47.5993],[15.0553,47.6079],[15.0751,47.6338],[15.0682,47.6518],[15.0902,47.742],[15.1358,47.7585],[15.2004,47.7539],[15.2183,47.7965],[15.2899,47.7917],[15.3009,47.8215],[15.3462,47.8262],[15.3804,47.8241],[15.462,47.7702],[15.5077,47.7683],[15.5294,47.7464],[15.6128,47.7516],[15.6368,47.716],[15.6798,47.6995],[15.7202,47.7103],[15.7262,47.6469],[15.7434,47.6427],[15.7824,47.6428],[15.8229,47.6384],[15.8414,47.6186],[15.8617,47.6171],[15.8481,47.5682],[15.8025,47.5768],[15.7485,47.553],[15.6951,47.5197],[15.6499,47.5048],[15.6387,47.4849],[15.598,47.4739],[15.5834,47.4136],[15.5378,47.4029],[15.5326,47.363],[15.4825,47.3585],[15.4245,47.362]]]}},{"type":"Feature","properties":{"code":"G","name":"Graz(Stadt)"},"geometry":{"type":"Polygon","coordinates":[[[15.4389,47.1286],[15.5222,47.1205],[15.5086,47.0745],[15.5053,47.0406],[15.4896,47.0211],[15.4618,47.0123],[15.3741,47.0234],[15.361,47.0518],[15.381,47.0703],[15.3519,47.1017],[15.3602,47.1199],[15.3985,47.1328],[15.4389,47.1286]]]}},{"type":"Feature","properties":{"code":"FE","name":"Feldkirchen"},"geometry":{"type":"Polygon","coordinates":[[[14.0139,46.6663],[13.9674,46.6534],[13.9277,46.6476],[13.954,46.6663],[13.921,46.6962],[13.9617,46.7161],[13.9419,46.7556],[13.8779,46.7605],[13.8573,46.7803],[13.8286,46.7831],[13.844,46.7981],[13.8441,46.844],[13.7887,46.882],[13.8072,46.9188],[13.8826,46.9182],[13.9475,46.9411],[13.9558,46.918],[13.9933,46.9109],[13.9994,46.8654],[14.0301,46.849],[14.1122,46.8364],[14.1367,46.8527],[14.1381,46.8486],[14.1087,46.8111],[14.1743,46.7982],[14.1618,46.7934],[14.1971,46.7865],[14.2007,46.7392],[14.261,46.7296],[14.2342,46.7006],[14.1867,46.7012],[14.165,46.6791],[14.113,46.6751],[14.0527,46.6615],[14.0139,46.6663]]]}},{"type":"Feature","properties":{"code":"SP","name":"Spittal an der Drau"},"geometry":{"type":"Polygon","coordinates":[[[12.9969,46.7107],[12.9551,46.7262],[12.8899,46.7188],[12.8418,46.7498],[12.8575,46.7606],[12.9,46.7773],[12.9321,46.7645],[12.9641,46.7991],[12.8962,46.8263],[12.8418,46.8614],[12.8377,46.913],[12.7943,46.9269],[12.787,46.94],[12.7417,46.9695],[12.7253,46.9963],[12.7666,47.0449],[12.7111,47.0489],[12.7019,47.0711],[12.6575,47.1],[12.6668,47.1233],[12.7315,47.1315],[12.7395,47.1008],[12.8209,47.0982],[12.9382,47.0766],[12.9537,47.0497],[12.986,47.0361],[13.0038,47.0443],[13.0737,47.0139],[13.081,47.0273],[13.2488,47.051],[13.2401,47.072],[13.278,47.0956],[13.3552,47.0976],[13.4071,47.0697],[13.4283,47.0818],[13.595,47.0564],[13.6384,47.056],[13.6873,47.0403],[13.7,47.0037],[13.7725,46.9775],[13.7854,46.9443],[13.8161,46.9189],[13.8072,46.9188],[13.7887,46.882],[13.8441,46.844],[13.844,46.7981],[13.8256,46.7824],[13.7743,46.794],[13.7588,46.7859],[13.6853,46.7928],[13.6509,46.7667],[13.6198,46.7769],[13.5883,46.7445],[13.5414,46.7569],[13.4937,46.755],[13.4556,46.7704],[13.4233,46.7297],[13.439,46.6814],[13.4335,46.6576],[13.3612,46.6726],[13.3069,46.6986],[13.2886,46.6912],[13.2293,46.7124],[13.1879,46.6944],[13.1399,46.685],[13.12,46.6855],[13.0852,46.7014],[13.0635,46.7019],[12.9969,46.7107]]]}}]}